{"status":"1","data":{"cityData":{"cities":{},"hotCitys":[{"adcode":"100000","name":"全国","label":"全国","spell":"","x":"116.3683244","y":"39.915085","citycode":"total"},{"short":"BJ","areacode":"010","adcode":"110000","name_en":"Beijing","name":"北京","x":"116.407387","y":"39.904179","label":"北京市","spell":"BeiJingShi","cities":[],"index":"B"},{"short":"TJ","areacode":"022","adcode":"120000","name_en":"Tianjin","name":"天津","x":"117.201509","y":"39.085318","label":"天津市","spell":"TianJinShi","cities":[],"index":"T"},{"short":"SY","areacode":"024","adcode":"210100","name_en":"Shenyang","name":"沈阳","x":"123.464675","y":"41.677576","label":"沈阳市","spell":"ShenYangShi","cities":[],"index":"S"},{"short":"DL","areacode":"0411","adcode":"210200","name_en":"Dalian","name":"大连","x":"121.614786","y":"38.913962","label":"大连市","spell":"DaLianShi","cities":[],"index":"D"},{"short":"SH","areacode":"021","adcode":"310000","name_en":"Shanghai","name":"上海","x":"121.473667","y":"31.230525","label":"上海市","spell":"ShangHaiShi","cities":[],"index":"S"},{"short":"NJ","areacode":"025","adcode":"320100","name_en":"Nanjing","name":"南京","x":"118.796624","y":"32.059344","label":"南京市","spell":"NanJingShi","cities":[],"index":"N"},{"short":"SZ","areacode":"0512","adcode":"320500","name_en":"Suzhou","name":"苏州","x":"120.585294","y":"31.299758","label":"苏州市","spell":"SuZhouShi","cities":[],"index":"S"},{"short":"HZ","areacode":"0571","adcode":"330100","name_en":"Hangzhou","name":"杭州","x":"120.210792","y":"30.246026","label":"杭州市","spell":"HangZhouShi","cities":[],"index":"H"},{"short":"QD","areacode":"0532","adcode":"370200","name_en":"Qingdao","name":"青岛","x":"120.382665","y":"36.066938","label":"青岛市","spell":"QingDaoShi","cities":[],"index":"Q"},{"short":"ZZ","areacode":"0371","adcode":"410100","name_en":"Zhengzhou","name":"郑州","x":"113.625351","y":"34.746303","label":"郑州市","spell":"ZhengZhouShi","cities":[],"index":"Z"},{"short":"WH","areacode":"027","adcode":"420100","name_en":"Wuhan","name":"武汉","x":"114.304569","y":"30.593354","label":"武汉市","spell":"WuHanShi","cities":[],"index":"W"},{"short":"CS","areacode":"0731","adcode":"430100","name_en":"Changsha","name":"长沙","x":"112.938882","y":"28.228304","label":"长沙市","spell":"ChangShaShi","cities":[],"index":"C"},{"short":"GZ","areacode":"020","adcode":"440100","name_en":"Guangzhou","name":"广州","x":"113.264499","y":"23.130061","label":"广州市","spell":"GuangZhouShi","cities":[],"index":"G"},{"short":"SZ","areacode":"0755","adcode":"440300","name_en":"Shenzhen","name":"深圳","x":"114.057939","y":"22.543527","label":"深圳市","spell":"ShenZhenShi","cities":[],"index":"S"},{"short":"CQ","areacode":"023","adcode":"500000","name_en":"Chongqing","name":"重庆","x":"106.551787","y":"29.56268","label":"重庆市","spell":"ChongQingShi","cities":[],"index":"C"},{"short":"CD","areacode":"028","adcode":"510100","name_en":"Chengdu","name":"成都","x":"104.066301","y":"30.572961","label":"成都市","spell":"ChengDuShi","cities":[],"index":"C"},{"short":"XA","areacode":"029","adcode":"610100","name_en":"Xi&#39;an","name":"西安","x":"108.939645","y":"34.343207","label":"西安市","spell":"XiAnShi","cities":[],"index":"X"},{"adcode":"810000","name":"香港","label":"香港特別行政區","spell":"XiangGang","x":"114.173355","y":"22.320048","citycode":"1852","cities":[],"index":"X"},{"adcode":"820000","name":"澳门","label":"澳門特別行政區","spell":"AoMen","x":"113.54909","y":"22.198951","citycode":"1853","cities":[],"index":"A"}],"provinces":{"110000":{"short":"BJ","areacode":"010","adcode":"110000","name_en":"Beijing","name":"北京","x":"116.407387","y":"39.904179","label":"北京市","spell":"BeiJingShi","cities":[],"index":"B"},"120000":{"short":"TJ","areacode":"022","adcode":"120000","name_en":"Tianjin","name":"天津","x":"117.201509","y":"39.085318","label":"天津市","spell":"TianJinShi","cities":[],"index":"T"},"130000":{"short":"HB","areacode":"","adcode":"130000","name_en":"Hebei","name":"河北","x":"114.530399","y":"38.037707","label":"河北省","spell":"HeBeiSheng","cities":[{"short":"SJZ","areacode":"0311","adcode":"130100","name_en":"Shijiazhuang","name":"石家庄","x":"114.514976","y":"38.042007","label":"石家庄市","spell":"ShiJiaZhuangShi","cities":[],"index":"S"},{"short":"TS","areacode":"0315","adcode":"130200","name_en":"Tangshan","name":"唐山","x":"118.180149","y":"39.63068","label":"唐山市","spell":"TangShanShi","cities":[],"index":"T"},{"short":"QHD","areacode":"0335","adcode":"130300","name_en":"Qinhuangdao","name":"秦皇岛","x":"119.52022","y":"39.888243","label":"秦皇岛市","spell":"QinHuangDaoShi","cities":[],"index":"Q"},{"short":"HD","areacode":"0310","adcode":"130400","name_en":"Handan","name":"邯郸","x":"114.53915","y":"36.625849","label":"邯郸市","spell":"HanDanShi","cities":[],"index":"H"},{"short":"XT","areacode":"0319","adcode":"130500","name_en":"Xingtai","name":"邢台","x":"114.49742","y":"37.060227","label":"邢台市","spell":"XingTaiShi","cities":[],"index":"X"},{"short":"BD","areacode":"0312","adcode":"130600","name_en":"Baoding","name":"保定","x":"115.464523","y":"38.874476","label":"保定市","spell":"BaoDingShi","cities":[],"index":"B"},{"short":"ZJK","areacode":"0313","adcode":"130700","name_en":"Zhangjiakou","name":"张家口","x":"114.885895","y":"40.768931","label":"张家口市","spell":"ZhangJiaKouShi","cities":[],"index":"Z"},{"short":"CD","areacode":"0314","adcode":"130800","name_en":"Chengde","name":"承德","x":"117.962749","y":"40.952942","label":"承德市","spell":"ChengDeShi","cities":[],"index":"C"},{"short":"CZ","areacode":"0317","adcode":"130900","name_en":"Cangzhou","name":"沧州","x":"116.838715","y":"38.304676","label":"沧州市","spell":"CangZhouShi","cities":[],"index":"C"},{"short":"LF","areacode":"0316","adcode":"131000","name_en":"Langfang","name":"廊坊","x":"116.683546","y":"39.538304","label":"廊坊市","spell":"LangFangShi","cities":[],"index":"L"},{"short":"HS","areacode":"0318","adcode":"131100","name_en":"Hengshui","name":"衡水","x":"115.668987","y":"37.739367","label":"衡水市","spell":"HengShuiShi","cities":[],"index":"H"}],"index":"H"},"140000":{"short":"SX","areacode":"","adcode":"140000","name_en":"Shanxi","name":"山西","x":"112.578781","y":"37.813948","label":"山西省","spell":"ShanXiSheng","cities":[{"short":"TY","areacode":"0351","adcode":"140100","name_en":"Taiyuan","name":"太原","x":"112.549656","y":"37.870451","label":"太原市","spell":"TaiYuanShi","cities":[],"index":"T"},{"short":"DT","areacode":"0352","adcode":"140200","name_en":"Datong","name":"大同","x":"113.366749","y":"40.09711","label":"大同市","spell":"DaTongShi","cities":[],"index":"D"},{"short":"YQ","areacode":"0353","adcode":"140300","name_en":"Yangquan","name":"阳泉","x":"113.580426","y":"37.857094","label":"阳泉市","spell":"YangQuanShi","cities":[],"index":"Y"},{"short":"CZ","areacode":"0355","adcode":"140400","name_en":"Changzhi","name":"长治","x":"113.117394","y":"36.195142","label":"长治市","spell":"ChangZhiShi","cities":[],"index":"C"},{"short":"JC","areacode":"0356","adcode":"140500","name_en":"Jincheng","name":"晋城","x":"112.852022","y":"35.491315","label":"晋城市","spell":"JinChengShi","cities":[],"index":"J"},{"short":"SZ","areacode":"0349","adcode":"140600","name_en":"Shuozhou","name":"朔州","x":"112.432906","y":"39.331734","label":"朔州市","spell":"ShuoZhouShi","cities":[],"index":"S"},{"short":"JZ","areacode":"0354","adcode":"140700","name_en":"Jinzhong","name":"晋中","x":"112.752633","y":"37.688006","label":"晋中市","spell":"JinZhongShi","cities":[],"index":"J"},{"short":"YC","areacode":"0359","adcode":"140800","name_en":"Yuncheng","name":"运城","x":"111.007051","y":"35.02667","label":"运城市","spell":"YunChengShi","cities":[],"index":"Y"},{"short":"XZ","areacode":"0350","adcode":"140900","name_en":"Xinzhou","name":"忻州","x":"112.734149","y":"38.415958","label":"忻州市","spell":"XinZhouShi","cities":[],"index":"X"},{"short":"LF","areacode":"0357","adcode":"141000","name_en":"Linfen","name":"临汾","x":"111.51931","y":"36.088581","label":"临汾市","spell":"LinFenShi","cities":[],"index":"L"},{"short":"LL","areacode":"0358","adcode":"141100","name_en":"Lvliang","name":"吕梁","x":"111.14454","y":"37.518996","label":"吕梁市","spell":"LvLiangShi","cities":[],"index":"L"}],"index":"S"},"150000":{"short":"NMGZZ","areacode":"","adcode":"150000","name_en":"Nei Mongol Zizhiqu","name":"内蒙古","x":"111.765226","y":"40.818233","label":"内蒙古自治区","spell":"NeiMengGuZiZhiQu","cities":[{"short":"HHHT","areacode":"0471","adcode":"150100","name_en":"Hohhot","name":"呼和浩特","x":"111.748814","y":"40.842127","label":"呼和浩特市","spell":"HuHeHaoTeShi","cities":[],"index":"H"},{"short":"BT","areacode":"0472","adcode":"150200","name_en":"Baotou","name":"包头","x":"109.95315","y":"40.621327","label":"包头市","spell":"BaoTouShi","cities":[],"index":"B"},{"short":"WH","areacode":"0473","adcode":"150300","name_en":"Wuhai","name":"乌海","x":"106.79415","y":"39.655048","label":"乌海市","spell":"WuHaiShi","cities":[],"index":"W"},{"short":"CF","areacode":"0476","adcode":"150400","name_en":"Chifeng","name":"赤峰","x":"118.887613","y":"42.256876","label":"赤峰市","spell":"ChiFengShi","cities":[],"index":"C"},{"short":"TL","areacode":"0475","adcode":"150500","name_en":"Tongliao","name":"通辽","x":"122.243309","y":"43.653566","label":"通辽市","spell":"TongLiaoShi","cities":[],"index":"T"},{"short":"EEDS","areacode":"0477","adcode":"150600","name_en":"Ordos","name":"鄂尔多斯","x":"109.782473","y":"39.608744","label":"鄂尔多斯市","spell":"EErDuoSiShi","cities":[],"index":"E"},{"short":"HLBE","areacode":"0470","adcode":"150700","name_en":"Hulun Buir","name":"呼伦贝尔","x":"119.77845","y":"49.166536","label":"呼伦贝尔市","spell":"HuLunBeiErShi","cities":[],"index":"H"},{"short":"BYNE","areacode":"0478","adcode":"150800","name_en":"Bayan Nur","name":"巴彦淖尔","x":"107.387767","y":"40.742987","label":"巴彦淖尔市","spell":"BaYanNaoErShi","cities":[],"index":"B"},{"short":"WLCB","areacode":"0474","adcode":"150900","name_en":"Ulanqab","name":"乌兰察布","x":"113.132227","y":"40.994526","label":"乌兰察布市","spell":"WuLanChaBuShi","cities":[],"index":"W"},{"short":"XAM","areacode":"0482","adcode":"152200","name_en":"Hinggan","name":"兴安盟","x":"122.037796","y":"46.082373","label":"兴安盟","spell":"XingAnMeng","cities":[],"index":"X"},{"short":"XLGLM","areacode":"0479","adcode":"152500","name_en":"Xilin Gol","name":"锡林郭勒盟","x":"116.047387","y":"43.933212","label":"锡林郭勒盟","spell":"XiLinGuoLeMeng","cities":[],"index":"X"},{"short":"ALSM","areacode":"0483","adcode":"152900","name_en":"Alxa","name":"阿拉善盟","x":"105.729135","y":"38.851554","label":"阿拉善盟","spell":"ALaShanMeng","cities":[],"index":"A"}],"index":"N"},"210000":{"short":"LN","areacode":"","adcode":"210000","name_en":"Liaoning","name":"辽宁","x":"123.435093","y":"41.836743","label":"辽宁省","spell":"LiaoNingSheng","cities":[{"short":"SY","areacode":"024","adcode":"210100","name_en":"Shenyang","name":"沈阳","x":"123.464675","y":"41.677576","label":"沈阳市","spell":"ShenYangShi","cities":[],"index":"S"},{"short":"DL","areacode":"0411","adcode":"210200","name_en":"Dalian","name":"大连","x":"121.614786","y":"38.913962","label":"大连市","spell":"DaLianShi","cities":[],"index":"D"},{"short":"AS","areacode":"0412","adcode":"210300","name_en":"Anshan","name":"鞍山","x":"122.994183","y":"41.108239","label":"鞍山市","spell":"AnShanShi","cities":[],"index":"A"},{"short":"FS","areacode":"0413","adcode":"210400","name_en":"Fushun","name":"抚顺","x":"123.957053","y":"41.881311","label":"抚顺市","spell":"FuShunShi","cities":[],"index":"F"},{"short":"BX","areacode":"0414","adcode":"210500","name_en":"Benxi","name":"本溪","x":"123.684984","y":"41.486834","label":"本溪市","spell":"BenXiShi","cities":[],"index":"B"},{"short":"DD","areacode":"0415","adcode":"210600","name_en":"Dandong","name":"丹东","x":"124.354419","y":"40.000646","label":"丹东市","spell":"DanDongShi","cities":[],"index":"D"},{"short":"JZ","areacode":"0416","adcode":"210700","name_en":"Jinzhou","name":"锦州","x":"121.126859","y":"41.096114","label":"锦州市","spell":"JinZhouShi","cities":[],"index":"J"},{"short":"YK","areacode":"0417","adcode":"210800","name_en":"Yingkou","name":"营口","x":"122.219148","y":"40.625027","label":"营口市","spell":"YingKouShi","cities":[],"index":"Y"},{"short":"FX","areacode":"0418","adcode":"210900","name_en":"Fuxin","name":"阜新","x":"121.670052","y":"42.022028","label":"阜新市","spell":"FuXinShi","cities":[],"index":"F"},{"short":"LY","areacode":"0419","adcode":"211000","name_en":"Liaoyang","name":"辽阳","x":"123.239669","y":"41.267396","label":"辽阳市","spell":"LiaoYangShi","cities":[],"index":"L"},{"short":"PJ","areacode":"0427","adcode":"211100","name_en":"Panjin","name":"盘锦","x":"122.170729","y":"40.71956","label":"盘锦市","spell":"PanJinShi","cities":[],"index":"P"},{"short":"TL","areacode":"0410","adcode":"211200","name_en":"Tieling","name":"铁岭","x":"123.726008","y":"42.223709","label":"铁岭市","spell":"TieLingShi","cities":[],"index":"T"},{"short":"CY","areacode":"0421","adcode":"211300","name_en":"Chaoyang","name":"朝阳","x":"120.488801","y":"41.601855","label":"朝阳市","spell":"ChaoYangShi","cities":[],"index":"C"},{"short":"HLD","areacode":"0429","adcode":"211400","name_en":"Huludao","name":"葫芦岛","x":"120.836783","y":"40.710974","label":"葫芦岛市","spell":"HuLuDaoShi","cities":[],"index":"H"}],"index":"L"},"220000":{"short":"JL","areacode":"","adcode":"220000","name_en":"Jilin","name":"吉林","x":"125.325802","y":"43.896942","label":"吉林省","spell":"JiLinSheng","cities":[{"short":"CC","areacode":"0431","adcode":"220100","name_en":"Changchun","name":"长春","x":"125.323643","y":"43.816996","label":"长春市","spell":"ChangChunShi","cities":[],"index":"C"},{"short":"JL","areacode":"0432","adcode":"220200","name_en":"Jilin","name":"吉林","x":"126.549719","y":"43.838132","label":"吉林市","spell":"JiLinShi","cities":[],"index":"J"},{"short":"SP","areacode":"0434","adcode":"220300","name_en":"Siping","name":"四平","x":"124.350599","y":"43.166764","label":"四平市","spell":"SiPingShi","cities":[],"index":"S"},{"short":"LY","areacode":"0437","adcode":"220400","name_en":"Liaoyuan","name":"辽源","x":"125.144676","y":"42.887961","label":"辽源市","spell":"LiaoYuanShi","cities":[],"index":"L"},{"short":"TH","areacode":"0435","adcode":"220500","name_en":"Tonghua","name":"通化","x":"125.939721","y":"41.728312","label":"通化市","spell":"TongHuaShi","cities":[],"index":"T"},{"short":"BS","areacode":"0439","adcode":"220600","name_en":"Baishan","name":"白山","x":"126.414274","y":"41.944132","label":"白山市","spell":"BaiShanShi","cities":[],"index":"B"},{"short":"SY","areacode":"0438","adcode":"220700","name_en":"Songyuan","name":"松原","x":"124.825321","y":"45.14191","label":"松原市","spell":"SongYuanShi","cities":[],"index":"S"},{"short":"BC","areacode":"0436","adcode":"220800","name_en":"Baicheng","name":"白城","x":"122.838102","y":"45.620131","label":"白城市","spell":"BaiChengShi","cities":[],"index":"B"},{"short":"YBCXZZZ","areacode":"1433","adcode":"222400","name_en":"Yanbian","name":"延边朝鲜族自治州","x":"129.470605","y":"42.909426","label":"延边朝鲜族自治州","spell":"YanBian ChaoXianZu ZiZhiZhou","cities":[],"index":"Y"}],"index":"J"},"230000":{"short":"HLJ","areacode":"","adcode":"230000","name_en":"Heilongjiang","name":"黑龙江","x":"126.661998","y":"45.742253","label":"黑龙江省","spell":"HeiLongJiangSheng","cities":[{"short":"HEB","areacode":"0451","adcode":"230100","name_en":"Harbin","name":"哈尔滨","x":"126.53505","y":"45.802981","label":"哈尔滨市","spell":"HaErBinShi","cities":[],"index":"H"},{"short":"QQHE","areacode":"0452","adcode":"230200","name_en":"Qiqihar","name":"齐齐哈尔","x":"123.918193","y":"47.354892","label":"齐齐哈尔市","spell":"QiQiHaErShi","cities":[],"index":"Q"},{"short":"JX","areacode":"0467","adcode":"230300","name_en":"Jixi","name":"鸡西","x":"130.969385","y":"45.295087","label":"鸡西市","spell":"JiXiShi","cities":[],"index":"J"},{"short":"HG","areacode":"0468","adcode":"230400","name_en":"Hegang","name":"鹤岗","x":"130.297687","y":"47.350659","label":"鹤岗市","spell":"HeGangShi","cities":[],"index":"H"},{"short":"SYS","areacode":"0469","adcode":"230500","name_en":"Shuangyashan","name":"双鸭山","x":"131.141563","y":"46.676157","label":"双鸭山市","spell":"ShuangYaShanShi","cities":[],"index":"S"},{"short":"DQ","areacode":"0459","adcode":"230600","name_en":"Daqing","name":"大庆","x":"125.104078","y":"46.589498","label":"大庆市","spell":"DaQingShi","cities":[],"index":"D"},{"short":"YC","areacode":"0458","adcode":"230700","name_en":"Yichun","name":"伊春","x":"128.840863","y":"47.728332","label":"伊春市","spell":"YiChunShi","cities":[],"index":"Y"},{"short":"JMS","areacode":"0454","adcode":"230800","name_en":"Jiamusi","name":"佳木斯","x":"130.318916","y":"46.800002","label":"佳木斯市","spell":"JiaMuSiShi","cities":[],"index":"J"},{"short":"QTH","areacode":"0464","adcode":"230900","name_en":"Qitaihe","name":"七台河","x":"131.003015","y":"45.771178","label":"七台河市","spell":"QiTaiHeShi","cities":[],"index":"Q"},{"short":"MDJ","areacode":"0453","adcode":"231000","name_en":"Mudanjiang","name":"牡丹江","x":"129.632928","y":"44.551486","label":"牡丹江市","spell":"MuDanJiangShi","cities":[],"index":"M"},{"short":"HH","areacode":"0456","adcode":"231100","name_en":"Heihe","name":"黑河","x":"127.528226","y":"50.244887","label":"黑河市","spell":"HeiHeShi","cities":[],"index":"H"},{"short":"SH","areacode":"0455","adcode":"231200","name_en":"Suihua","name":"绥化","x":"126.968714","y":"46.654147","label":"绥化市","spell":"SuiHuaShi","cities":[],"index":"S"},{"short":"DXALD","areacode":"0457","adcode":"232700","name_en":"Da Hinggan Ling","name":"大兴安岭","x":"124.11786","y":"50.41129","label":"大兴安岭地区","spell":"DaXingAnLingDiQu","cities":[],"index":"D"}],"index":"H"},"310000":{"short":"SH","areacode":"021","adcode":"310000","name_en":"Shanghai","name":"上海","x":"121.473667","y":"31.230525","label":"上海市","spell":"ShangHaiShi","cities":[],"index":"S"},"320000":{"short":"JS","areacode":"","adcode":"320000","name_en":"Jiangsu","name":"江苏","x":"118.763563","y":"32.061377","label":"江苏省","spell":"JiangSuSheng","cities":[{"short":"NJ","areacode":"025","adcode":"320100","name_en":"Nanjing","name":"南京","x":"118.796624","y":"32.059344","label":"南京市","spell":"NanJingShi","cities":[],"index":"N"},{"short":"WX","areacode":"0510","adcode":"320200","name_en":"Wuxi","name":"无锡","x":"120.311889","y":"31.491064","label":"无锡市","spell":"WuXiShi","cities":[],"index":"W"},{"short":"XZ","areacode":"0516","adcode":"320300","name_en":"Xuzhou","name":"徐州","x":"117.283752","y":"34.204224","label":"徐州市","spell":"XuZhouShi","cities":[],"index":"X"},{"short":"CZ","areacode":"0519","adcode":"320400","name_en":"Changzhou","name":"常州","x":"119.974092","y":"31.811313","label":"常州市","spell":"ChangZhouShi","cities":[],"index":"C"},{"short":"SZ","areacode":"0512","adcode":"320500","name_en":"Suzhou","name":"苏州","x":"120.585294","y":"31.299758","label":"苏州市","spell":"SuZhouShi","cities":[],"index":"S"},{"short":"NT","areacode":"0513","adcode":"320600","name_en":"Nantong","name":"南通","x":"120.894522","y":"31.981269","label":"南通市","spell":"NanTongShi","cities":[],"index":"N"},{"short":"LYG","areacode":"0518","adcode":"320700","name_en":"Lianyungang","name":"连云港","x":"119.221487","y":"34.596639","label":"连云港市","spell":"LianYunGangShi","cities":[],"index":"L"},{"short":"HA","areacode":"0517","adcode":"320800","name_en":"Huai&#39;an","name":"淮安","x":"119.113166","y":"33.551495","label":"淮安市","spell":"HuaiAnShi","cities":[],"index":"H"},{"short":"YC","areacode":"0515","adcode":"320900","name_en":"Yancheng","name":"盐城","x":"120.16263","y":"33.348176","label":"盐城市","spell":"YanChengShi","cities":[],"index":"Y"},{"short":"YZ","areacode":"0514","adcode":"321000","name_en":"Yangzhou","name":"扬州","x":"119.412834","y":"32.394404","label":"扬州市","spell":"YangZhouShi","cities":[],"index":"Y"},{"short":"ZJ","areacode":"0511","adcode":"321100","name_en":"Zhenjiang","name":"镇江","x":"119.424441","y":"32.188141","label":"镇江市","spell":"ZhenJiangShi","cities":[],"index":"Z"},{"short":"TZ","areacode":"0523","adcode":"321200","name_en":"Taizhou","name":"泰州","x":"119.922883","y":"32.456692","label":"泰州市","spell":"TaiZhouShi","cities":[],"index":"T"},{"short":"SQ","areacode":"0527","adcode":"321300","name_en":"Suqian","name":"宿迁","x":"118.275228","y":"33.963186","label":"宿迁市","spell":"SuQianShi","cities":[],"index":"S"}],"index":"J"},"330000":{"short":"ZJ","areacode":"","adcode":"330000","name_en":"Zhejiang","name":"浙江","x":"120.152575","y":"30.266619","label":"浙江省","spell":"ZheJiangSheng","cities":[{"short":"HZ","areacode":"0571","adcode":"330100","name_en":"Hangzhou","name":"杭州","x":"120.210792","y":"30.246026","label":"杭州市","spell":"HangZhouShi","cities":[],"index":"H"},{"short":"NB","areacode":"0574","adcode":"330200","name_en":"Ningbo","name":"宁波","x":"121.62454","y":"29.860258","label":"宁波市","spell":"NingBoShi","cities":[],"index":"N"},{"short":"WZ","areacode":"0577","adcode":"330300","name_en":"Wenzhou","name":"温州","x":"120.699279","y":"27.993849","label":"温州市","spell":"WenZhouShi","cities":[],"index":"W"},{"short":"JX","areacode":"0573","adcode":"330400","name_en":"Jiaxing","name":"嘉兴","x":"120.755623","y":"30.746814","label":"嘉兴市","spell":"JiaXingShi","cities":[],"index":"J"},{"short":"HZ","areacode":"0572","adcode":"330500","name_en":"Huzhou","name":"湖州","x":"120.086881","y":"30.894178","label":"湖州市","spell":"HuZhouShi","cities":[],"index":"H"},{"short":"SX","areacode":"0575","adcode":"330600","name_en":"Shaoxing","name":"绍兴","x":"120.582886","y":"30.051549","label":"绍兴市","spell":"ShaoXingShi","cities":[],"index":"S"},{"short":"JH","areacode":"0579","adcode":"330700","name_en":"Jinhua","name":"金华","x":"119.647265","y":"29.079195","label":"金华市","spell":"JinHuaShi","cities":[],"index":"J"},{"short":"QZ","areacode":"0570","adcode":"330800","name_en":"Quzhou","name":"衢州","x":"118.859307","y":"28.970229","label":"衢州市","spell":"QuZhouShi","cities":[],"index":"Q"},{"short":"ZS","areacode":"0580","adcode":"330900","name_en":"Zhoushan","name":"舟山","x":"122.207395","y":"29.985578","label":"舟山市","spell":"ZhouShanShi","cities":[],"index":"Z"},{"short":"TZ","areacode":"0576","adcode":"331000","name_en":"Taizhou","name":"台州","x":"121.42079","y":"28.655716","label":"台州市","spell":"TaiZhouShi","cities":[],"index":"T"},{"short":"LS","areacode":"0578","adcode":"331100","name_en":"Lishui","name":"丽水","x":"119.923249","y":"28.467694","label":"丽水市","spell":"LiShuiShi","cities":[],"index":"L"}],"index":"Z"},"340000":{"short":"AH","areacode":"","adcode":"340000","name_en":"Anhui","name":"安徽","x":"117.330139","y":"31.734559","label":"安徽省","spell":"AnHuiSheng","cities":[{"short":"HF","areacode":"0551","adcode":"340100","name_en":"Hefei","name":"合肥","x":"117.227267","y":"31.820567","label":"合肥市","spell":"HeFeiShi","cities":[],"index":"H"},{"short":"WH","areacode":"0553","adcode":"340200","name_en":"Wuhu","name":"芜湖","x":"118.433065","y":"31.352614","label":"芜湖市","spell":"WuHuShi","cities":[],"index":"W"},{"short":"BB","areacode":"0552","adcode":"340300","name_en":"Bengbu","name":"蚌埠","x":"117.388566","y":"32.91682","label":"蚌埠市","spell":"BengBuShi","cities":[],"index":"B"},{"short":"HN","areacode":"0554","adcode":"340400","name_en":"Huainan","name":"淮南","x":"117.018603","y":"32.585384","label":"淮南市","spell":"HuaiNanShi","cities":[],"index":"H"},{"short":"MAS","areacode":"0555","adcode":"340500","name_en":"Ma&#39;anshan","name":"马鞍山","x":"118.50685","y":"31.668765","label":"马鞍山市","spell":"MaAnShanShi","cities":[],"index":"M"},{"short":"HB","areacode":"0561","adcode":"340600","name_en":"Huaibei","name":"淮北","x":"116.798362","y":"33.956264","label":"淮北市","spell":"HuaiBeiShi","cities":[],"index":"H"},{"short":"TL","areacode":"0562","adcode":"340700","name_en":"Tongling","name":"铜陵","x":"117.811298","y":"30.945214","label":"铜陵市","spell":"TongLingShi","cities":[],"index":"T"},{"short":"AQ","areacode":"0556","adcode":"340800","name_en":"Anqing","name":"安庆","x":"117.115349","y":"30.531828","label":"安庆市","spell":"AnQingShi","cities":[],"index":"A"},{"short":"HS","areacode":"0559","adcode":"341000","name_en":"Huangshan","name":"黄山","x":"118.337643","y":"29.714886","label":"黄山市","spell":"HuangShanShi","cities":[],"index":"H"},{"short":"CZ","areacode":"0550","adcode":"341100","name_en":"Chuzhou","name":"滁州","x":"118.333439","y":"32.255904","label":"滁州市","spell":"ChuZhouShi","cities":[],"index":"C"},{"short":"FY","areacode":"1558","adcode":"341200","name_en":"Fuyang","name":"阜阳","x":"115.814252","y":"32.891032","label":"阜阳市","spell":"FuYangShi","cities":[],"index":"F"},{"short":"SZ","areacode":"0557","adcode":"341300","name_en":"Suzhou","name":"宿州","x":"116.96419","y":"33.647726","label":"宿州市","spell":"SuZhouShi","cities":[],"index":"S"},{"short":"LA","areacode":"0564","adcode":"341500","name_en":"Lu&#39;an","name":"六安","x":"116.519729","y":"31.735892","label":"六安市","spell":"LuAnShi","cities":[],"index":"L"},{"short":"BZ","areacode":"0558","adcode":"341600","name_en":"Bozhou","name":"亳州","x":"115.778588","y":"33.846285","label":"亳州市","spell":"BoZhouShi","cities":[],"index":"B"},{"short":"CZ","areacode":"0566","adcode":"341700","name_en":"Chizhou","name":"池州","x":"117.495663","y":"30.674264","label":"池州市","spell":"ChiZhouShi","cities":[],"index":"C"},{"short":"XC","areacode":"0563","adcode":"341800","name_en":"Xuancheng","name":"宣城","x":"118.759127","y":"30.939278","label":"宣城市","spell":"XuanChengShi","cities":[],"index":"X"}],"index":"A"},"350000":{"short":"FJ","areacode":"","adcode":"350000","name_en":"Fujian","name":"福建","x":"119.296194","y":"26.101082","label":"福建省","spell":"FuJianSheng","cities":[{"short":"FZ","areacode":"0591","adcode":"350100","name_en":"Fuzhou","name":"福州","x":"119.296411","y":"26.074286","label":"福州市","spell":"FuZhouShi","cities":[],"index":"F"},{"short":"XM","areacode":"0592","adcode":"350200","name_en":"Xiamen","name":"厦门","x":"118.08891","y":"24.479627","label":"厦门市","spell":"XiaMenShi","cities":[],"index":"X"},{"short":"PT","areacode":"0594","adcode":"350300","name_en":"Putian","name":"莆田","x":"119.007662","y":"25.454202","label":"莆田市","spell":"PuTianShi","cities":[],"index":"P"},{"short":"SM","areacode":"0598","adcode":"350400","name_en":"Sanming","name":"三明","x":"117.638919","y":"26.263455","label":"三明市","spell":"SanMingShi","cities":[],"index":"S"},{"short":"QZ","areacode":"0595","adcode":"350500","name_en":"Quanzhou","name":"泉州","x":"118.675724","y":"24.874452","label":"泉州市","spell":"QuanZhouShi","cities":[],"index":"Q"},{"short":"ZZ","areacode":"0596","adcode":"350600","name_en":"Zhangzhou","name":"漳州","x":"117.647298","y":"24.515297","label":"漳州市","spell":"ZhangZhouShi","cities":[],"index":"Z"},{"short":"NP","areacode":"0599","adcode":"350700","name_en":"Nanping","name":"南平","x":"118.081325","y":"27.382829","label":"南平市","spell":"NanPingShi","cities":[],"index":"N"},{"short":"LY","areacode":"0597","adcode":"350800","name_en":"Longyan","name":"龙岩","x":"117.017362","y":"25.075884","label":"龙岩市","spell":"LongYanShi","cities":[],"index":"L"},{"short":"ND","areacode":"0593","adcode":"350900","name_en":"Ningde","name":"宁德","x":"119.547729","y":"26.666222","label":"宁德市","spell":"NingDeShi","cities":[],"index":"N"}],"index":"F"},"360000":{"short":"JX","areacode":"","adcode":"360000","name_en":"Jiangxi","name":"江西","x":"115.816587","y":"28.637234","label":"江西省","spell":"JiangXiSheng","cities":[{"short":"NC","areacode":"0791","adcode":"360100","name_en":"Nanchang","name":"南昌","x":"115.857972","y":"28.682976","label":"南昌市","spell":"NanChangShi","cities":[],"index":"N"},{"short":"JDZ","areacode":"0798","adcode":"360200","name_en":"Jingdezhen","name":"景德镇","x":"117.184892","y":"29.2744","label":"景德镇市","spell":"JingDeZhenShi","cities":[],"index":"J"},{"short":"PX","areacode":"0799","adcode":"360300","name_en":"Pingxiang","name":"萍乡","x":"113.887147","y":"27.658721","label":"萍乡市","spell":"PingXiangShi","cities":[],"index":"P"},{"short":"JJ","areacode":"0792","adcode":"360400","name_en":"Jiujiang","name":"九江","x":"115.95356","y":"29.66116","label":"九江市","spell":"JiuJiangShi","cities":[],"index":"J"},{"short":"XY","areacode":"0790","adcode":"360500","name_en":"Xinyu","name":"新余","x":"114.916665","y":"27.818553","label":"新余市","spell":"XinYuShi","cities":[],"index":"X"},{"short":"YT","areacode":"0701","adcode":"360600","name_en":"Yingtan","name":"鹰潭","x":"117.039532","y":"28.272092","label":"鹰潭市","spell":"YingTanShi","cities":[],"index":"Y"},{"short":"GZ","areacode":"0797","adcode":"360700","name_en":"Ganzhou","name":"赣州","x":"114.933494","y":"25.831139","label":"赣州市","spell":"GanZhouShi","cities":[],"index":"G"},{"short":"JA","areacode":"0796","adcode":"360800","name_en":"Ji&#39;an","name":"吉安","x":"114.96681","y":"27.091243","label":"吉安市","spell":"JiAnShi","cities":[],"index":"J"},{"short":"YC","areacode":"0795","adcode":"360900","name_en":"Yichun","name":"宜春","x":"114.416826","y":"27.816245","label":"宜春市","spell":"YiChunShi","cities":[],"index":"Y"},{"short":"FZ","areacode":"0794","adcode":"361000","name_en":"Fuzhou","name":"抚州","x":"116.358054","y":"27.948979","label":"抚州市","spell":"FuZhouShi","cities":[],"index":"F"},{"short":"SR","areacode":"0793","adcode":"361100","name_en":"Shangrao","name":"上饶","x":"117.943064","y":"28.45513","label":"上饶市","spell":"ShangRaoShi","cities":[],"index":"S"}],"index":"J"},"370000":{"short":"SD","areacode":"","adcode":"370000","name_en":"Shandong","name":"山东","x":"117.020725","y":"36.670201","label":"山东省","spell":"ShanDong Sheng","cities":[{"short":"JN","areacode":"0531","adcode":"370100","name_en":"Jinan","name":"济南","x":"117.120128","y":"36.652069","label":"济南市","spell":"JiNanShi","cities":[],"index":"J"},{"short":"QD","areacode":"0532","adcode":"370200","name_en":"Qingdao","name":"青岛","x":"120.382665","y":"36.066938","label":"青岛市","spell":"QingDaoShi","cities":[],"index":"Q"},{"short":"ZB","areacode":"0533","adcode":"370300","name_en":"Zibo","name":"淄博","x":"118.054994","y":"36.813787","label":"淄博市","spell":"ZiBoShi","cities":[],"index":"Z"},{"short":"ZZ","areacode":"0632","adcode":"370400","name_en":"Zaozhuang","name":"枣庄","x":"117.323759","y":"34.810858","label":"枣庄市","spell":"ZaoZhuangShi","cities":[],"index":"Z"},{"short":"DY","areacode":"0546","adcode":"370500","name_en":"Dongying","name":"东营","x":"118.674633","y":"37.433992","label":"东营市","spell":"DongYingShi","cities":[],"index":"D"},{"short":"YT","areacode":"0535","adcode":"370600","name_en":"Yantai","name":"烟台","x":"121.447755","y":"37.464551","label":"烟台市","spell":"YanTaiShi","cities":[],"index":"Y"},{"short":"WF","areacode":"0536","adcode":"370700","name_en":"Weifang","name":"潍坊","x":"119.161721","y":"36.707668","label":"潍坊市","spell":"WeiFangShi","cities":[],"index":"W"},{"short":"JN","areacode":"0537","adcode":"370800","name_en":"Jining","name":"济宁","x":"116.587116","y":"35.415117","label":"济宁市","spell":"JiNingShi","cities":[],"index":"J"},{"short":"TA","areacode":"0538","adcode":"370900","name_en":"Tai&#39;an","name":"泰安","x":"117.086963","y":"36.201784","label":"泰安市","spell":"TaiAnShi","cities":[],"index":"T"},{"short":"WH","areacode":"0631","adcode":"371000","name_en":"Weihai","name":"威海","x":"122.120519","y":"37.513315","label":"威海市","spell":"WeiHaiShi","cities":[],"index":"W"},{"short":"RZ","areacode":"0633","adcode":"371100","name_en":"Rizhao","name":"日照","x":"119.52685","y":"35.416912","label":"日照市","spell":"RiZhaoShi","cities":[],"index":"R"},{"short":"LY","areacode":"0539","adcode":"371300","name_en":"Linyi","name":"临沂","x":"118.356464","y":"35.103771","label":"临沂市","spell":"LinYiShi","cities":[],"index":"L"},{"short":"DZ","areacode":"0534","adcode":"371400","name_en":"Dezhou","name":"德州","x":"116.359244","y":"37.436492","label":"德州市","spell":"DeZhouShi","cities":[],"index":"D"},{"short":"LC","areacode":"0635","adcode":"371500","name_en":"Liaocheng","name":"聊城","x":"115.985238","y":"36.455857","label":"聊城市","spell":"LiaoChengShi","cities":[],"index":"L"},{"short":"BZ","areacode":"0543","adcode":"371600","name_en":"Binzhou","name":"滨州","x":"117.970731","y":"37.382687","label":"滨州市","spell":"BinZhouShi","cities":[],"index":"B"},{"short":"HZ","areacode":"0530","adcode":"371700","name_en":"Heze","name":"菏泽","x":"115.479646","y":"35.234309","label":"菏泽市","spell":"HeZeShi","cities":[],"index":"H"}],"index":"S"},"410000":{"short":"HN","areacode":"","adcode":"410000","name_en":"Henan","name":"河南","x":"113.753094","y":"34.767052","label":"河南省","spell":"HeNanSheng","cities":[{"short":"ZZ","areacode":"0371","adcode":"410100","name_en":"Zhengzhou","name":"郑州","x":"113.625351","y":"34.746303","label":"郑州市","spell":"ZhengZhouShi","cities":[],"index":"Z"},{"short":"KF","areacode":"0378","adcode":"410200","name_en":"Kaifeng","name":"开封","x":"114.314278","y":"34.798083","label":"开封市","spell":"KaiFengShi","cities":[],"index":"K"},{"short":"LY","areacode":"0379","adcode":"410300","name_en":"Luoyang","name":"洛阳","x":"112.453895","y":"34.619702","label":"洛阳市","spell":"LuoYangShi","cities":[],"index":"L"},{"short":"PDS","areacode":"0375","adcode":"410400","name_en":"Pingdingshan","name":"平顶山","x":"113.192595","y":"33.766554","label":"平顶山市","spell":"PingDingShanShi","cities":[],"index":"P"},{"short":"AY","areacode":"0372","adcode":"410500","name_en":"Anyang","name":"安阳","x":"114.39248","y":"36.098779","label":"安阳市","spell":"AnYangShi","cities":[],"index":"A"},{"short":"HB","areacode":"0392","adcode":"410600","name_en":"Hebi","name":"鹤壁","x":"114.297305","y":"35.748329","label":"鹤壁市","spell":"HeBiShi","cities":[],"index":"H"},{"short":"XX","areacode":"0373","adcode":"410700","name_en":"Xinxiang","name":"新乡","x":"113.92679","y":"35.303589","label":"新乡市","spell":"XinXiangShi","cities":[],"index":"X"},{"short":"JZ","areacode":"0391","adcode":"410800","name_en":"Jiaozuo","name":"焦作","x":"113.241902","y":"35.215726","label":"焦作市","spell":"JiaoZuoShi","cities":[],"index":"J"},{"short":"PY","areacode":"0393","adcode":"410900","name_en":"Puyang","name":"濮阳","x":"115.029246","y":"35.762731","label":"濮阳市","spell":"PuYangShi","cities":[],"index":"P"},{"short":"XC","areacode":"0374","adcode":"411000","name_en":"Xuchang","name":"许昌","x":"113.852004","y":"34.03732","label":"许昌市","spell":"XuChangShi","cities":[],"index":"X"},{"short":"LH","areacode":"0395","adcode":"411100","name_en":"Luohe","name":"漯河","x":"114.0166","y":"33.58038","label":"漯河市","spell":"LuoHeShi","cities":[],"index":"L"},{"short":"SMX","areacode":"0398","adcode":"411200","name_en":"Sanmenxia","name":"三门峡","x":"111.200482","y":"34.773196","label":"三门峡市","spell":"SanMenXiaShi","cities":[],"index":"S"},{"short":"NY","areacode":"0377","adcode":"411300","name_en":"Nanyang","name":"南阳","x":"112.584753","y":"33.016102","label":"南阳市","spell":"NanYangShi","cities":[],"index":"N"},{"short":"SQ","areacode":"0370","adcode":"411400","name_en":"Shangqiu","name":"商丘","x":"115.656358","y":"34.415165","label":"商丘市","spell":"ShangQiuShi","cities":[],"index":"S"},{"short":"XY","areacode":"0376","adcode":"411500","name_en":"Xinyang","name":"信阳","x":"114.091058","y":"32.148624","label":"信阳市","spell":"XinYangShi","cities":[],"index":"X"},{"short":"ZK","areacode":"0394","adcode":"411600","name_en":"Zhoukou","name":"周口","x":"114.701222","y":"33.634652","label":"周口市","spell":"ZhouKouShi","cities":[],"index":"Z"},{"short":"ZMD","areacode":"0396","adcode":"411700","name_en":"Zhumadian","name":"驻马店","x":"114.021988","y":"33.014038","label":"驻马店市","spell":"ZhuMaDianShi","cities":[],"index":"Z"},{"short":"JY","areacode":"1391","adcode":"419001","name_en":"Jiyuan","name":"济源","x":"112.602347","y":"35.069057","label":"济源市","spell":"JiYuanShi","cities":[],"index":"J"}],"index":"H"},"420000":{"short":"HB","areacode":"","adcode":"420000","name_en":"Hubei","name":"湖北","x":"114.341552","y":"30.546222","label":"湖北省","spell":"HuBeiSheng","cities":[{"short":"WH","areacode":"027","adcode":"420100","name_en":"Wuhan","name":"武汉","x":"114.304569","y":"30.593354","label":"武汉市","spell":"WuHanShi","cities":[],"index":"W"},{"short":"HS","areacode":"0714","adcode":"420200","name_en":"Huangshi","name":"黄石","x":"115.038999","y":"30.201082","label":"黄石市","spell":"HuangShiShi","cities":[],"index":"H"},{"short":"SY","areacode":"0719","adcode":"420300","name_en":"Shiyan","name":"十堰","x":"110.798921","y":"32.629057","label":"十堰市","spell":"ShiYanShi","cities":[],"index":"S"},{"short":"YC","areacode":"0717","adcode":"420500","name_en":"Yichang","name":"宜昌","x":"111.286962","y":"30.69217","label":"宜昌市","spell":"YiChangShi","cities":[],"index":"Y"},{"short":"XY","areacode":"0710","adcode":"420600","name_en":"Xiangyang","name":"襄阳","x":"112.121743","y":"32.010161","label":"襄阳市","spell":"XiangYangShi","cities":[],"index":"X"},{"short":"EZ","areacode":"0711","adcode":"420700","name_en":"Ezhou","name":"鄂州","x":"114.894909","y":"30.391461","label":"鄂州市","spell":"EZhouShi","cities":[],"index":"E"},{"short":"JM","areacode":"0724","adcode":"420800","name_en":"Jingmen","name":"荆门","x":"112.199009","y":"31.035445","label":"荆门市","spell":"JingMenShi","cities":[],"index":"J"},{"short":"XG","areacode":"0712","adcode":"420900","name_en":"Xiaogan","name":"孝感","x":"113.956962","y":"30.918311","label":"孝感市","spell":"XiaoGanShi","cities":[],"index":"X"},{"short":"JZ","areacode":"0716","adcode":"421000","name_en":"Jingzhou","name":"荆州","x":"112.24143","y":"30.336282","label":"荆州市","spell":"JingZhouShi","cities":[],"index":"J"},{"short":"HG","areacode":"0713","adcode":"421100","name_en":"Huanggang","name":"黄冈","x":"114.872425","y":"30.453722","label":"黄冈市","spell":"HuangGangShi","cities":[],"index":"H"},{"short":"XN","areacode":"0715","adcode":"421200","name_en":"Xianning","name":"咸宁","x":"114.322601","y":"29.84135","label":"咸宁市","spell":"XianNingShi","cities":[],"index":"X"},{"short":"SZ","areacode":"0722","adcode":"421300","name_en":"Suizhou","name":"随州","x":"113.382324","y":"31.690275","label":"随州市","spell":"SuiZhouShi","cities":[],"index":"S"},{"short":"ESTJZMZZZ","areacode":"0718","adcode":"422800","name_en":"Enshi","name":"恩施土家族苗族自治州","x":"109.488076","y":"30.272104","label":"恩施土家族苗族自治州","spell":"EnShi TuJiaZu MiaoZu ZiZhiZhou","cities":[],"index":"E"},{"short":"XT","areacode":"0728","adcode":"429004","name_en":"Xiantao","name":"仙桃","x":"113.442973","y":"30.328407","label":"仙桃市","spell":"XianTaoShi","cities":[],"index":"X"},{"short":"QJ","areacode":"2728","adcode":"429005","name_en":"Qianjiang","name":"潜江","x":"112.900279","y":"30.401954","label":"潜江市","spell":"QianJiangShi","cities":[],"index":"Q"},{"short":"TM","areacode":"1728","adcode":"429006","name_en":"Tianmen","name":"天门","x":"113.166545","y":"30.663706","label":"天门市","spell":"TianMenShi","cities":[],"index":"T"},{"short":"SNJL","areacode":"1719","adcode":"429021","name_en":"Shennongjia","name":"神农架林区","x":"110.675879","y":"31.745103","label":"神农架林区","spell":"ShenNongJiaLinQu","cities":[],"index":"S"}],"index":"H"},"430000":{"short":"HN","areacode":"","adcode":"430000","name_en":"Hunan","name":"湖南","x":"112.982951","y":"28.116007","label":"湖南省","spell":"HuNanSheng","cities":[{"short":"CS","areacode":"0731","adcode":"430100","name_en":"Changsha","name":"长沙","x":"112.938882","y":"28.228304","label":"长沙市","spell":"ChangShaShi","cities":[],"index":"C"},{"short":"ZZ","areacode":"0733","adcode":"430200","name_en":"Zhuzhou","name":"株洲","x":"113.132783","y":"27.828862","label":"株洲市","spell":"ZhuZhouShi","cities":[],"index":"Z"},{"short":"XT","areacode":"0732","adcode":"430300","name_en":"Xiangtan","name":"湘潭","x":"112.945439","y":"27.83136","label":"湘潭市","spell":"XiangTanShi","cities":[],"index":"X"},{"short":"HY","areacode":"0734","adcode":"430400","name_en":"Hengyang","name":"衡阳","x":"112.572016","y":"26.894216","label":"衡阳市","spell":"HengYangShi","cities":[],"index":"H"},{"short":"SY","areacode":"0739","adcode":"430500","name_en":"Shaoyang","name":"邵阳","x":"111.467855","y":"27.239528","label":"邵阳市","spell":"ShaoYangShi","cities":[],"index":"S"},{"short":"YY","areacode":"0730","adcode":"430600","name_en":"Yueyang","name":"岳阳","x":"113.128922","y":"29.35648","label":"岳阳市","spell":"YueYangShi","cities":[],"index":"Y"},{"short":"CD","areacode":"0736","adcode":"430700","name_en":"Changde","name":"常德","x":"111.69905","y":"29.031446","label":"常德市","spell":"ChangDeShi","cities":[],"index":"C"},{"short":"ZJJ","areacode":"0744","adcode":"430800","name_en":"Zhangjiajie","name":"张家界","x":"110.478887","y":"29.117343","label":"张家界市","spell":"ZhangJiaJieShi","cities":[],"index":"Z"},{"short":"YY","areacode":"0737","adcode":"430900","name_en":"Yiyang","name":"益阳","x":"112.355994","y":"28.554853","label":"益阳市","spell":"YiYangShi","cities":[],"index":"Y"},{"short":"CZ","areacode":"0735","adcode":"431000","name_en":"Chenzhou","name":"郴州","x":"113.015517","y":"25.770117","label":"郴州市","spell":"ChenZhouShi","cities":[],"index":"C"},{"short":"YZ","areacode":"0746","adcode":"431100","name_en":"Yongzhou","name":"永州","x":"111.613482","y":"26.419861","label":"永州市","spell":"YongZhouShi","cities":[],"index":"Y"},{"short":"HH","areacode":"0745","adcode":"431200","name_en":"Huaihua","name":"怀化","x":"110.001598","y":"27.569813","label":"怀化市","spell":"HuaiHuaShi","cities":[],"index":"H"},{"short":"LD","areacode":"0738","adcode":"431300","name_en":"Loudi","name":"娄底","x":"111.994468","y":"27.699838","label":"娄底市","spell":"LouDiShi","cities":[],"index":"L"},{"short":"XXTJZMZZZ","areacode":"0743","adcode":"433100","name_en":"Xiangxi","name":"湘西土家族苗族自治州","x":"109.673345","y":"28.215983","label":"湘西土家族苗族自治州","spell":"XiangXi TuJiaZu MiaoZu ZiZhiZhou","cities":[],"index":"X"}],"index":"H"},"440000":{"short":"GD","areacode":"","adcode":"440000","name_en":"Guangdong","name":"广东","x":"113.266887","y":"23.133306","label":"广东省","spell":"GuangDongSheng","cities":[{"short":"GZ","areacode":"020","adcode":"440100","name_en":"Guangzhou","name":"广州","x":"113.264499","y":"23.130061","label":"广州市","spell":"GuangZhouShi","cities":[],"index":"G"},{"short":"SG","areacode":"0751","adcode":"440200","name_en":"Shaoguan","name":"韶关","x":"113.597324","y":"24.810977","label":"韶关市","spell":"ShaoGuanShi","cities":[],"index":"S"},{"short":"SZ","areacode":"0755","adcode":"440300","name_en":"Shenzhen","name":"深圳","x":"114.057939","y":"22.543527","label":"深圳市","spell":"ShenZhenShi","cities":[],"index":"S"},{"short":"ZH","areacode":"0756","adcode":"440400","name_en":"Zhuhai","name":"珠海","x":"113.576892","y":"22.271644","label":"珠海市","spell":"ZhuHaiShi","cities":[],"index":"Z"},{"short":"ST","areacode":"0754","adcode":"440500","name_en":"Shantou","name":"汕头","x":"116.681956","y":"23.354152","label":"汕头市","spell":"ShanTouShi","cities":[],"index":"S"},{"short":"FS","areacode":"0757","adcode":"440600","name_en":"Foshan","name":"佛山","x":"113.121586","y":"23.021351","label":"佛山市","spell":"FoShanShi","cities":[],"index":"F"},{"short":"JM","areacode":"0750","adcode":"440700","name_en":"Jiangmen","name":"江门","x":"113.081548","y":"22.578948","label":"江门市","spell":"JiangMenShi","cities":[],"index":"J"},{"short":"ZJ","areacode":"0759","adcode":"440800","name_en":"Zhanjiang","name":"湛江","x":"110.357538","y":"21.270108","label":"湛江市","spell":"ZhanJiangShi","cities":[],"index":"Z"},{"short":"MM","areacode":"0668","adcode":"440900","name_en":"Maoming","name":"茂名","x":"110.925533","y":"21.662728","label":"茂名市","spell":"MaoMingShi","cities":[],"index":"M"},{"short":"ZQ","areacode":"0758","adcode":"441200","name_en":"Zhaoqing","name":"肇庆","x":"112.465245","y":"23.047747","label":"肇庆市","spell":"ZhaoQingShi","cities":[],"index":"Z"},{"short":"HZ","areacode":"0752","adcode":"441300","name_en":"Huizhou","name":"惠州","x":"114.415587","y":"23.112368","label":"惠州市","spell":"HuiZhouShi","cities":[],"index":"H"},{"short":"MZ","areacode":"0753","adcode":"441400","name_en":"Meizhou","name":"梅州","x":"116.122046","y":"24.288832","label":"梅州市","spell":"MeiZhouShi","cities":[],"index":"M"},{"short":"SW","areacode":"0660","adcode":"441500","name_en":"Shanwei","name":"汕尾","x":"115.375557","y":"22.787204","label":"汕尾市","spell":"ShanWeiShi","cities":[],"index":"S"},{"short":"HY","areacode":"0762","adcode":"441600","name_en":"Heyuan","name":"河源","x":"114.700215","y":"23.744276","label":"河源市","spell":"HeYuanShi","cities":[],"index":"H"},{"short":"YJ","areacode":"0662","adcode":"441700","name_en":"Yangjiang","name":"阳江","x":"111.98343","y":"21.856853","label":"阳江市","spell":"YangJiangShi","cities":[],"index":"Y"},{"short":"QY","areacode":"0763","adcode":"441800","name_en":"Qingyuan","name":"清远","x":"113.056098","y":"23.682064","label":"清远市","spell":"QingYuanShi","cities":[],"index":"Q"},{"short":"DG","areacode":"0769","adcode":"441900","name_en":"Dongguan","name":"东莞","x":"113.751884","y":"23.021016","label":"东莞市","spell":"DongGuanShi","cities":[],"index":"D"},{"short":"ZS","areacode":"0760","adcode":"442000","name_en":"Zhongshan","name":"中山","x":"113.392517","y":"22.517024","label":"中山市","spell":"ZhongShanShi","cities":[],"index":"Z"},{"short":"CZ","areacode":"0768","adcode":"445100","name_en":"Chaozhou","name":"潮州","x":"116.621901","y":"23.657662","label":"潮州市","spell":"ChaoZhouShi","cities":[],"index":"C"},{"short":"JY","areacode":"0663","adcode":"445200","name_en":"Jieyang","name":"揭阳","x":"116.372732","y":"23.550968","label":"揭阳市","spell":"JieYangShi","cities":[],"index":"J"},{"short":"YF","areacode":"0766","adcode":"445300","name_en":"Yunfu","name":"云浮","x":"112.044524","y":"22.915163","label":"云浮市","spell":"YunFuShi","cities":[],"index":"Y"}],"index":"G"},"450000":{"short":"GXZZZZ","areacode":"","adcode":"450000","name_en":"Guangxi Zhuangzu Zizhiqu","name":"广西","x":"108.327537","y":"22.816659","label":"广西壮族自治区","spell":"GuangXi ZhuangZu ZiZhiQu","cities":[{"short":"NN","areacode":"0771","adcode":"450100","name_en":"Nanning","name":"南宁","x":"108.366407","y":"22.8177","label":"南宁市","spell":"NanNingShi","cities":[],"index":"N"},{"short":"LZ","areacode":"0772","adcode":"450200","name_en":"Liuzhou","name":"柳州","x":"109.428071","y":"24.326442","label":"柳州市","spell":"LiuZhouShi","cities":[],"index":"L"},{"short":"GL","areacode":"0773","adcode":"450300","name_en":"Guilin","name":"桂林","x":"110.179752","y":"25.235615","label":"桂林市","spell":"GuiLinShi","cities":[],"index":"G"},{"short":"WZ","areacode":"0774","adcode":"450400","name_en":"Wuzhou","name":"梧州","x":"111.279022","y":"23.476733","label":"梧州市","spell":"WuZhouShi","cities":[],"index":"W"},{"short":"BH","areacode":"0779","adcode":"450500","name_en":"Beihai","name":"北海","x":"109.120248","y":"21.481305","label":"北海市","spell":"BeiHaiShi","cities":[],"index":"B"},{"short":"FCG","areacode":"0770","adcode":"450600","name_en":"Fangchenggang","name":"防城港","x":"108.35467","y":"21.686732","label":"防城港市","spell":"FangChengGangShi","cities":[],"index":"F"},{"short":"QZ","areacode":"0777","adcode":"450700","name_en":"Qinzhou","name":"钦州","x":"108.654355","y":"21.980894","label":"钦州市","spell":"QinZhouShi","cities":[],"index":"Q"},{"short":"GG","areacode":"1755","adcode":"450800","name_en":"Guigang","name":"贵港","x":"109.598903","y":"23.11182","label":"贵港市","spell":"GuiGangShi","cities":[],"index":"G"},{"short":"YL","areacode":"0775","adcode":"450900","name_en":"Yulin","name":"玉林","x":"110.18097","y":"22.654001","label":"玉林市","spell":"YuLinShi","cities":[],"index":"Y"},{"short":"BS","areacode":"0776","adcode":"451000","name_en":"Baise","name":"百色","x":"106.61869","y":"23.90307","label":"百色市","spell":"BaiSeShi","cities":[],"index":"B"},{"short":"HZ","areacode":"1774","adcode":"451100","name_en":"Hezhou","name":"贺州","x":"111.567216","y":"24.404182","label":"贺州市","spell":"HeZhouShi","cities":[],"index":"H"},{"short":"HC","areacode":"0778","adcode":"451200","name_en":"Hechi","name":"河池","x":"108.63639","y":"24.48523","label":"河池市","spell":"HeChiShi","cities":[],"index":"H"},{"short":"LB","areacode":"1772","adcode":"451300","name_en":"Laibin","name":"来宾","x":"109.221243","y":"23.750105","label":"来宾市","spell":"LaiBinShi","cities":[],"index":"L"},{"short":"CZ","areacode":"1771","adcode":"451400","name_en":"Chongzuo","name":"崇左","x":"107.364973","y":"22.377139","label":"崇左市","spell":"ChongZuoShi","cities":[],"index":"C"}],"index":"G"},"460000":{"short":"HN","areacode":"","adcode":"460000","name_en":"Hainan","name":"海南","x":"110.348781","y":"20.018639","label":"海南省","spell":"HaiNanSheng","cities":[{"short":"HK","areacode":"0898","adcode":"460100","name_en":"Haikou","name":"海口","x":"110.200162","y":"20.046316","label":"海口市","spell":"HaiKouShi","cities":[],"index":"H"},{"short":"SY","areacode":"0899","adcode":"460200","name_en":"Sanya","name":"三亚","x":"109.511709","y":"18.252865","label":"三亚市","spell":"SanYaShi","cities":[],"index":"S"},{"short":"SS","areacode":"2898","adcode":"460300","name_en":"Sansha","name":"三沙","x":"112.338649","y":"16.831004","label":"三沙市","spell":"SanShaShi","cities":[],"index":"S"},{"short":"DZ","areacode":"0805","adcode":"460400","name_en":"Danzhou","name":"儋州","x":"109.580812","y":"19.520948","label":"儋州市","spell":"DanZhouShi","cities":[],"index":"D"}],"index":"H"},"500000":{"short":"CQ","areacode":"023","adcode":"500000","name_en":"Chongqing","name":"重庆","x":"106.551787","y":"29.56268","label":"重庆市","spell":"ChongQingShi","cities":[],"index":"C"},"510000":{"short":"SC","areacode":"","adcode":"510000","name_en":"Sichuan","name":"四川","x":"104.076452","y":"30.651696","label":"四川省","spell":"SiChuanSheng","cities":[{"short":"CD","areacode":"028","adcode":"510100","name_en":"Chengdu","name":"成都","x":"104.066301","y":"30.572961","label":"成都市","spell":"ChengDuShi","cities":[],"index":"C"},{"short":"ZG","areacode":"0813","adcode":"510300","name_en":"Zigong","name":"自贡","x":"104.779307","y":"29.33924","label":"自贡市","spell":"ZiGongShi","cities":[],"index":"Z"},{"short":"PZH","areacode":"0812","adcode":"510400","name_en":"Panzhihua","name":"攀枝花","x":"101.71846","y":"26.582417","label":"攀枝花市","spell":"PanZhiHuaShi","cities":[],"index":"P"},{"short":"LZ","areacode":"0830","adcode":"510500","name_en":"Luzhou","name":"泸州","x":"105.441866","y":"28.87098","label":"泸州市","spell":"LuZhouShi","cities":[],"index":"L"},{"short":"DY","areacode":"0838","adcode":"510600","name_en":"Deyang","name":"德阳","x":"104.397795","y":"31.127449","label":"德阳市","spell":"DeYangShi","cities":[],"index":"D"},{"short":"MY","areacode":"0816","adcode":"510700","name_en":"Mianyang","name":"绵阳","x":"104.679127","y":"31.467673","label":"绵阳市","spell":"MianYangShi","cities":[],"index":"M"},{"short":"GY","areacode":"0839","adcode":"510800","name_en":"Guangyuan","name":"广元","x":"105.844004","y":"32.435774","label":"广元市","spell":"GuangYuanShi","cities":[],"index":"G"},{"short":"SN","areacode":"0825","adcode":"510900","name_en":"Suining","name":"遂宁","x":"105.592602","y":"30.53268","label":"遂宁市","spell":"SuiNingShi","cities":[],"index":"S"},{"short":"NJ","areacode":"1832","adcode":"511000","name_en":"Neijiang","name":"内江","x":"105.057992","y":"29.58021","label":"内江市","spell":"NeiJiangShi","cities":[],"index":"N"},{"short":"LS","areacode":"0833","adcode":"511100","name_en":"Leshan","name":"乐山","x":"103.766085","y":"29.552275","label":"乐山市","spell":"LeShanShi","cities":[],"index":"L"},{"short":"NC","areacode":"0817","adcode":"511300","name_en":"Nanchong","name":"南充","x":"106.110565","y":"30.837235","label":"南充市","spell":"NanChongShi","cities":[],"index":"N"},{"short":"MS","areacode":"1833","adcode":"511400","name_en":"Meishan","name":"眉山","x":"103.848417","y":"30.077113","label":"眉山市","spell":"MeiShanShi","cities":[],"index":"M"},{"short":"YB","areacode":"0831","adcode":"511500","name_en":"Yibin","name":"宜宾","x":"104.642826","y":"28.752354","label":"宜宾市","spell":"YiBinShi","cities":[],"index":"Y"},{"short":"GA","areacode":"0826","adcode":"511600","name_en":"Guang&#39;an","name":"广安","x":"106.632647","y":"30.456354","label":"广安市","spell":"GuangAnShi","cities":[],"index":"G"},{"short":"DZ","areacode":"0818","adcode":"511700","name_en":"Dazhou","name":"达州","x":"107.46778","y":"31.209278","label":"达州市","spell":"DaZhouShi","cities":[],"index":"D"},{"short":"YA","areacode":"0835","adcode":"511800","name_en":"Ya&#39;an","name":"雅安","x":"103.041538","y":"30.009998","label":"雅安市","spell":"YaAnShi","cities":[],"index":"Y"},{"short":"BZ","areacode":"0827","adcode":"511900","name_en":"Bazhong","name":"巴中","x":"106.747548","y":"31.867853","label":"巴中市","spell":"BaZhongShi","cities":[],"index":"B"},{"short":"ZY","areacode":"0832","adcode":"512000","name_en":"Ziyang","name":"资阳","x":"104.627265","y":"30.129236","label":"资阳市","spell":"ZiYangShi","cities":[],"index":"Z"},{"short":"ABZZQZZZ","areacode":"0837","adcode":"513200","name_en":"Aba","name":"阿坝藏族羌族自治州","x":"102.224504","y":"31.899427","label":"阿坝藏族羌族自治州","spell":"ABa ZangZu QiangZu ZiZhiZhou","cities":[],"index":"A"},{"short":"GZZZZZ","areacode":"0836","adcode":"513300","name_en":"Garze","name":"甘孜藏族自治州","x":"101.96231","y":"30.04952","label":"甘孜藏族自治州","spell":"GanZi ZangZu ZiZhiZhou","cities":[],"index":"G"},{"short":"LSYZZZ","areacode":"0834","adcode":"513400","name_en":"Liangshan","name":"凉山彝族自治州","x":"102.267713","y":"27.881396","label":"凉山彝族自治州","spell":"LiangShan YiZu ZiZhiZhou","cities":[],"index":"L"}],"index":"S"},"520000":{"short":"GZ","areacode":"","adcode":"520000","name_en":"Guizhou","name":"贵州","x":"106.705251","y":"26.600328","label":"贵州省","spell":"GuiZhouSheng","cities":[{"short":"GY","areacode":"0851","adcode":"520100","name_en":"Guiyang","name":"贵阳","x":"106.628201","y":"26.646694","label":"贵阳市","spell":"GuiYangShi","cities":[],"index":"G"},{"short":"LPS","areacode":"0858","adcode":"520200","name_en":"Liupanshui","name":"六盘水","x":"104.830357","y":"26.592538","label":"六盘水市","spell":"LiuPanShuiShi","cities":[],"index":"L"},{"short":"ZY","areacode":"0852","adcode":"520300","name_en":"Zunyi","name":"遵义","x":"107.031922","y":"27.721931","label":"遵义市","spell":"ZunYiShi","cities":[],"index":"Z"},{"short":"AS","areacode":"0853","adcode":"520400","name_en":"Anshun","name":"安顺","x":"105.9476","y":"26.253103","label":"安顺市","spell":"AnShunShi","cities":[],"index":"A"},{"short":"BJ","areacode":"0857","adcode":"520500","name_en":"Bijie","name":"毕节","x":"105.291544","y":"27.283615","label":"毕节市","spell":"BiJieShi","cities":[],"index":"B"},{"short":"TR","areacode":"0856","adcode":"520600","name_en":"Tongren","name":"铜仁","x":"109.189528","y":"27.731555","label":"铜仁市","spell":"TongRenShi","cities":[],"index":"T"},{"short":"QXNBYZMZZZ","areacode":"0859","adcode":"522300","name_en":"Qianxinan","name":"黔西南布依族苗族自治州","x":"104.906419","y":"25.087733","label":"黔西南布依族苗族自治州","spell":"QianXiNan BuYiZu MiaoZu ZiZhiZhou","cities":[],"index":"Q"},{"short":"QDNMZDZZZ","areacode":"0855","adcode":"522600","name_en":"Qiandongnan","name":"黔东南苗族侗族自治州","x":"107.982838","y":"26.583759","label":"黔东南苗族侗族自治州","spell":"QianDongNan MiaoZu DongZu ZiZhiZhou","cities":[],"index":"Q"},{"short":"QNBYZMZZZ","areacode":"0854","adcode":"522700","name_en":"Qiannan","name":"黔南布依族苗族自治州","x":"107.522303","y":"26.253136","label":"黔南布依族苗族自治州","spell":"QianNan BuYiZu MiaoZu ZiZhiZhou","cities":[],"index":"Q"}],"index":"G"},"530000":{"short":"YN","areacode":"","adcode":"530000","name_en":"Yunnan","name":"云南","x":"102.709372","y":"25.046432","label":"云南省","spell":"YunNanSheng","cities":[{"short":"KM","areacode":"0871","adcode":"530100","name_en":"Kunming","name":"昆明","x":"102.833669","y":"24.88149","label":"昆明市","spell":"KunMingShi","cities":[],"index":"K"},{"short":"QJ","areacode":"0874","adcode":"530300","name_en":"Qujing","name":"曲靖","x":"103.796288","y":"25.490866","label":"曲靖市","spell":"QuJingShi","cities":[],"index":"Q"},{"short":"YX","areacode":"0877","adcode":"530400","name_en":"Yuxi","name":"玉溪","x":"102.526673","y":"24.346786","label":"玉溪市","spell":"YuXiShi","cities":[],"index":"Y"},{"short":"BS","areacode":"0875","adcode":"530500","name_en":"Baoshan","name":"保山","x":"99.161489","y":"25.112018","label":"保山市","spell":"BaoShanShi","cities":[],"index":"B"},{"short":"ZT","areacode":"0870","adcode":"530600","name_en":"Zhaotong","name":"昭通","x":"103.717078","y":"27.338185","label":"昭通市","spell":"ZhaoTongShi","cities":[],"index":"Z"},{"short":"LJ","areacode":"0888","adcode":"530700","name_en":"Lijiang","name":"丽江","x":"100.225936","y":"26.855165","label":"丽江市","spell":"LiJiangShi","cities":[],"index":"L"},{"short":"PE","areacode":"0879","adcode":"530800","name_en":"Pu&#39;er","name":"普洱","x":"100.966011","y":"22.825229","label":"普洱市","spell":"PuErShi","cities":[],"index":"P"},{"short":"LC","areacode":"0883","adcode":"530900","name_en":"Lincang","name":"临沧","x":"100.088837","y":"23.884175","label":"临沧市","spell":"LinCangShi","cities":[],"index":"L"},{"short":"CXYZZZ","areacode":"0878","adcode":"532300","name_en":"Chuxiong","name":"楚雄彝族自治州","x":"101.528304","y":"25.045678","label":"楚雄彝族自治州","spell":"ChuXiong YiZu ZiZhiZhou","cities":[],"index":"C"},{"short":"HHHNZYZZZ","areacode":"0873","adcode":"532500","name_en":"Honghe","name":"红河哈尼族彝族自治州","x":"103.374873","y":"23.363129","label":"红河哈尼族彝族自治州","spell":"HongHe HaNiZu YiZu ZiZhiZhou","cities":[],"index":"H"},{"short":"WSZZMZZZ","areacode":"0876","adcode":"532600","name_en":"Wenshan","name":"文山壮族苗族自治州","x":"104.21567","y":"23.400983","label":"文山壮族苗族自治州","spell":"WenShan ZhuangZu MiaoZu ZiZhiZhou","cities":[],"index":"W"},{"short":"XSBNDZZZ","areacode":"0691","adcode":"532800","name_en":"Xishuangbanna","name":"西双版纳傣族自治州","x":"100.797002","y":"22.009037","label":"西双版纳傣族自治州","spell":"XiShuangBanNa DaiZu ZiZhiZhou","cities":[],"index":"X"},{"short":"DLBZZZ","areacode":"0872","adcode":"532900","name_en":"Dali","name":"大理白族自治州","x":"100.267608","y":"25.606548","label":"大理白族自治州","spell":"DaLi BaiZu ZiZhiZhou","cities":[],"index":"D"},{"short":"DHDZJPZZZ","areacode":"0692","adcode":"533100","name_en":"Dehong","name":"德宏傣族景颇族自治州","x":"98.585621","y":"24.433146","label":"德宏傣族景颇族自治州","spell":"DeHong DaiZu JingPoZu ZiZhiZhou","cities":[],"index":"D"},{"short":"NJLSZZZ","areacode":"0886","adcode":"533300","name_en":"Nujiang","name":"怒江傈僳族自治州","x":"98.8566","y":"25.817555","label":"怒江傈僳族自治州","spell":"NuJiangLiSuZuZiZhiZhou","cities":[],"index":"N"},{"short":"DQZZZZ","areacode":"0887","adcode":"533400","name_en":"Deqen","name":"迪庆藏族自治州","x":"99.70211","y":"27.819149","label":"迪庆藏族自治州","spell":"DiQing ZangZu ZiZhiZhou","cities":[],"index":"D"}],"index":"Y"},"540000":{"short":"XZZZ","areacode":"","adcode":"540000","name_en":"Xizang Zizhiqu","name":"西藏","x":"91.117449","y":"29.648694","label":"西藏自治区","spell":"XiZangZiZhiQu","cities":[{"short":"LS","areacode":"0891","adcode":"540100","name_en":"Lhasa","name":"拉萨","x":"91.171924","y":"29.653491","label":"拉萨市","spell":"LaSaShi","cities":[],"index":"L"},{"short":"RKZ","areacode":"0892","adcode":"540200","name_en":"Xigaze","name":"日喀则","x":"88.880423","y":"29.266838","label":"日喀则市","spell":"RiKaZeShi","cities":[],"index":"R"},{"short":"CD","areacode":"0895","adcode":"540300","name_en":"Qamdo","name":"昌都","x":"97.170425","y":"31.142879","label":"昌都市","spell":"ChangDuShi","cities":[],"index":"C"},{"short":"LZ","areacode":"0894","adcode":"540400","name_en":"Nyingchi","name":"林芝","x":"94.361436","y":"29.64875","label":"林芝市","spell":"LinZhiShi","cities":[],"index":"L"},{"short":"SN","areacode":"0893","adcode":"540500","name_en":"Shannan","name":"山南","x":"91.771426","y":"29.237722","label":"山南市","spell":"ShanNanShi","cities":[],"index":"S"},{"short":"NQD","areacode":"0896","adcode":"540600","name_en":"Nagqu","name":"那曲","x":"92.05151","y":"31.477905","label":"那曲市","spell":"NaQuDiShi","cities":[],"index":"N"},{"short":"ALD","areacode":"0897","adcode":"542500","name_en":"Ngari","name":"阿里","x":"80.105786","y":"32.500987","label":"阿里地区","spell":"ALiDiQu","cities":[],"index":"A"}],"index":"X"},"610000":{"short":"SX","areacode":"","adcode":"610000","name_en":"Shaanxi","name":"陕西","x":"108.953939","y":"34.266611","label":"陕西省","spell":"ShaanXiSheng","cities":[{"short":"XA","areacode":"029","adcode":"610100","name_en":"Xi&#39;an","name":"西安","x":"108.939645","y":"34.343207","label":"西安市","spell":"XiAnShi","cities":[],"index":"X"},{"short":"TC","areacode":"0919","adcode":"610200","name_en":"Tongchuan","name":"铜川","x":"108.945116","y":"34.897133","label":"铜川市","spell":"TongChuanShi","cities":[],"index":"T"},{"short":"BJ","areacode":"0917","adcode":"610300","name_en":"Baoji","name":"宝鸡","x":"107.237682","y":"34.362862","label":"宝鸡市","spell":"BaoJiShi","cities":[],"index":"B"},{"short":"XY","areacode":"0910","adcode":"610400","name_en":"Xianyang","name":"咸阳","x":"108.708837","y":"34.329896","label":"咸阳市","spell":"XianYangShi","cities":[],"index":"X"},{"short":"WN","areacode":"0913","adcode":"610500","name_en":"Weinan","name":"渭南","x":"109.470962","y":"34.520632","label":"渭南市","spell":"WeiNanShi","cities":[],"index":"W"},{"short":"YA","areacode":"0911","adcode":"610600","name_en":"Yan&#39;an","name":"延安","x":"109.49468","y":"36.650109","label":"延安市","spell":"YanAnShi","cities":[],"index":"Y"},{"short":"HZ","areacode":"0916","adcode":"610700","name_en":"Hanzhong","name":"汉中","x":"107.02319","y":"33.066373","label":"汉中市","spell":"HanZhongShi","cities":[],"index":"H"},{"short":"YL","areacode":"0912","adcode":"610800","name_en":"Yulin","name":"榆林","x":"109.734104","y":"38.28576","label":"榆林市","spell":"YuLinShi","cities":[],"index":"Y"},{"short":"AK","areacode":"0915","adcode":"610900","name_en":"Ankang","name":"安康","x":"109.029017","y":"32.685435","label":"安康市","spell":"AnKangShi","cities":[],"index":"A"},{"short":"SL","areacode":"0914","adcode":"611000","name_en":"Shangluo","name":"商洛","x":"109.918646","y":"33.873358","label":"商洛市","spell":"ShangLuoShi","cities":[],"index":"S"}],"index":"S"},"620000":{"short":"GS","areacode":"","adcode":"620000","name_en":"Gansu","name":"甘肃","x":"103.826777","y":"36.060634","label":"甘肃省","spell":"GanSuSheng","cities":[{"short":"LZ","areacode":"0931","adcode":"620100","name_en":"Lanzhou","name":"兰州","x":"103.834228","y":"36.060798","label":"兰州市","spell":"LanZhouShi","cities":[],"index":"L"},{"short":"JYG","areacode":"1937","adcode":"620200","name_en":"Jiayuguan","name":"嘉峪关","x":"98.2882","y":"39.77325","label":"嘉峪关市","spell":"JiaYuGuanShi","cities":[],"index":"J"},{"short":"JC","areacode":"0935","adcode":"620300","name_en":"Jinchang","name":"金昌","x":"102.187972","y":"38.521468","label":"金昌市","spell":"JinChangShi","cities":[],"index":"J"},{"short":"BY","areacode":"0943","adcode":"620400","name_en":"Baiyin","name":"白银","x":"104.138872","y":"36.545123","label":"白银市","spell":"BaiYinShi","cities":[],"index":"B"},{"short":"TS","areacode":"0938","adcode":"620500","name_en":"Tianshui","name":"天水","x":"105.724828","y":"34.581514","label":"天水市","spell":"TianShuiShi","cities":[],"index":"T"},{"short":"WW","areacode":"1935","adcode":"620600","name_en":"Wuwei","name":"武威","x":"102.637821","y":"37.92898","label":"武威市","spell":"WuWeiShi","cities":[],"index":"W"},{"short":"ZY","areacode":"0936","adcode":"620700","name_en":"Zhangye","name":"张掖","x":"100.449858","y":"38.924766","label":"张掖市","spell":"ZhangYeShi","cities":[],"index":"Z"},{"short":"PL","areacode":"0933","adcode":"620800","name_en":"Pingliang","name":"平凉","x":"106.664913","y":"35.542417","label":"平凉市","spell":"PingLiangShi","cities":[],"index":"P"},{"short":"JQ","areacode":"0937","adcode":"620900","name_en":"Jiuquan","name":"酒泉","x":"98.49432","y":"39.733416","label":"酒泉市","spell":"JiuQuanShi","cities":[],"index":"J"},{"short":"QY","areacode":"0934","adcode":"621000","name_en":"Qingyang","name":"庆阳","x":"107.643433","y":"35.709459","label":"庆阳市","spell":"QingYangShi","cities":[],"index":"Q"},{"short":"DX","areacode":"0932","adcode":"621100","name_en":"Dingxi","name":"定西","x":"104.592342","y":"35.607947","label":"定西市","spell":"DingXiShi","cities":[],"index":"D"},{"short":"LN","areacode":"2935","adcode":"621200","name_en":"Longnan","name":"陇南","x":"104.960296","y":"33.370174","label":"陇南市","spell":"LongNanShi","cities":[],"index":"L"},{"short":"LXHZZZ","areacode":"0930","adcode":"622900","name_en":"Linxia","name":"临夏回族自治州","x":"103.210386","y":"35.601792","label":"临夏回族自治州","spell":"LinXia HuiZu ZiZhiZhou","cities":[],"index":"L"},{"short":"GNZZZZ","areacode":"0941","adcode":"623000","name_en":"Gannan","name":"甘南藏族自治州","x":"102.911736","y":"34.983266","label":"甘南藏族自治州","spell":"GanNan ZangZu ZiZhiZhou","cities":[],"index":"G"}],"index":"G"},"630000":{"short":"QH","areacode":"","adcode":"630000","name_en":"Qinghai","name":"青海","x":"101.780482","y":"36.622538","label":"青海省","spell":"QingHaiSheng","cities":[{"short":"XN","areacode":"0971","adcode":"630100","name_en":"Xining","name":"西宁","x":"101.777795","y":"36.616621","label":"西宁市","spell":"XiNingShi","cities":[],"index":"X"},{"short":"HD","areacode":"0972","adcode":"630200","name_en":"Haidong","name":"海东","x":"102.41064","y":"36.473448","label":"海东市","spell":"HaiDongShi","cities":[],"index":"H"},{"short":"HBZZZZ","areacode":"0970","adcode":"632200","name_en":"Haibei","name":"海北藏族自治州","x":"100.900944","y":"36.954612","label":"海北藏族自治州","spell":"HaiBei ZangZu ZiZhiZhou","cities":[],"index":"H"},{"short":"HNZZZZ","areacode":"0973","adcode":"632300","name_en":"Huangnan","name":"黄南藏族自治州","x":"102.015397","y":"35.519317","label":"黄南藏族自治州","spell":"HuangNan ZangZu ZiZhiZhou","cities":[],"index":"H"},{"short":"HNZZZZ","areacode":"0974","adcode":"632500","name_en":"Hainan","name":"海南藏族自治州","x":"100.622647","y":"36.296399","label":"海南藏族自治州","spell":"HaiNan ZangZu ZiZhiZhou","cities":[],"index":"H"},{"short":"GLZZZZ","areacode":"0975","adcode":"632600","name_en":"Golog","name":"果洛藏族自治州","x":"100.245161","y":"34.472179","label":"果洛藏族自治州","spell":"GuoLuo ZangZu ZiZhiZhou","cities":[],"index":"G"},{"short":"YSZZZZ","areacode":"0976","adcode":"632700","name_en":"Yushu","name":"玉树藏族自治州","x":"97.006292","y":"33.006308","label":"玉树藏族自治州","spell":"YuShu ZangZu ZiZhiZhou","cities":[],"index":"Y"},{"short":"HXMGZZZZZ","areacode":"0977","adcode":"632800","name_en":"Haixi","name":"海西蒙古族藏族自治州","x":"97.33197","y":"37.348114","label":"海西蒙古族藏族自治州","spell":"HaiXi MengGuZu ZangZu ZiZhiZhou","cities":[],"index":"H"}],"index":"Q"},"640000":{"short":"NXHZZZ","areacode":"","adcode":"640000","name_en":"Ningxia Huizu Zizhiqu","name":"宁夏","x":"106.258889","y":"38.472273","label":"宁夏回族自治区","spell":"NingXia HuiZu ZiZhiQu","cities":[{"short":"YC","areacode":"0951","adcode":"640100","name_en":"Yinchuan","name":"银川","x":"106.230977","y":"38.487783","label":"银川市","spell":"YinChuanShi","cities":[],"index":"Y"},{"short":"SZS","areacode":"0952","adcode":"640200","name_en":"Shizuishan","name":"石嘴山","x":"106.382792","y":"38.984632","label":"石嘴山市","spell":"ShiZuiShanShi","cities":[],"index":"S"},{"short":"WZ","areacode":"0953","adcode":"640300","name_en":"Wuzhong","name":"吴忠","x":"106.198613","y":"37.997755","label":"吴忠市","spell":"WuZhongShi","cities":[],"index":"W"},{"short":"GY","areacode":"0954","adcode":"640400","name_en":"Guyuan","name":"固原","x":"106.24267","y":"36.01628","label":"固原市","spell":"GuYuanShi","cities":[],"index":"G"},{"short":"ZW","areacode":"1953","adcode":"640500","name_en":"Zhongwei","name":"中卫","x":"105.19677","y":"37.500185","label":"中卫市","spell":"ZhongWeiShi","cities":[],"index":"Z"}],"index":"N"},"650000":{"short":"XJWWEZZ","areacode":"","adcode":"650000","name_en":"Xinjiang Uygur Zizhiqu","name":"新疆","x":"87.628579","y":"43.793301","label":"新疆维吾尔自治区","spell":"XinJiang WeiWuEr ZiZhiQu","cities":[{"short":"WLMQ","areacode":"0991","adcode":"650100","name_en":"Urumqi","name":"乌鲁木齐","x":"87.616824","y":"43.825377","label":"乌鲁木齐市","spell":"WuLuMuQiShi","cities":[],"index":"W"},{"short":"KLMY","areacode":"0990","adcode":"650200","name_en":"Karamay","name":"克拉玛依","x":"84.889239","y":"45.577712","label":"克拉玛依市","spell":"KeLaMaYiShi","cities":[],"index":"K"},{"short":"TLF","areacode":"0995","adcode":"650400","name_en":"Turpan","name":"吐鲁番","x":"89.250261","y":"42.972736","label":"吐鲁番市","spell":"TuLuFanShi","cities":[],"index":"T"},{"short":"HM","areacode":"0902","adcode":"650500","name_en":"Kumul","name":"哈密","x":"93.515053","y":"42.819346","label":"哈密市","spell":"HaMiShi","cities":[],"index":"H"},{"short":"CJHZZZ","areacode":"0994","adcode":"652300","name_en":"Changji","name":"昌吉回族自治州","x":"87.308995","y":"44.011044","label":"昌吉回族自治州","spell":"ChangJi HuiZu ZiZhiZhou","cities":[],"index":"C"},{"short":"BETLMGZZ","areacode":"0909","adcode":"652700","name_en":"Bortala","name":"博尔塔拉蒙古自治州","x":"82.066363","y":"44.906039","label":"博尔塔拉蒙古自治州","spell":"BoErTaLa MengGu ZiZhiZhou","cities":[],"index":"B"},{"short":"BYGLMGZZ","areacode":"0996","adcode":"652800","name_en":"Bayingol","name":"巴音郭楞蒙古自治州","x":"86.145298","y":"41.764115","label":"巴音郭楞蒙古自治州","spell":"BaYinGuoLeng MengGu ZiZhiZhou","cities":[],"index":"B"},{"short":"AKSD","areacode":"0997","adcode":"652900","name_en":"Aksu","name":"阿克苏","x":"80.265068","y":"41.170712","label":"阿克苏地区","spell":"AKeSuDiQu","cities":[],"index":"A"},{"short":"KZLSKEKZZZ","areacode":"0908","adcode":"653000","name_en":"Kizilsu","name":"克孜勒苏柯尔克孜自治州","x":"76.168157","y":"39.716236","label":"克孜勒苏柯尔克孜自治州","spell":"KeZiLeSu KeErKeZi ZiZhiZhou","cities":[],"index":"K"},{"short":"KSD","areacode":"0998","adcode":"653100","name_en":"Kashgar","name":"喀什","x":"75.989746","y":"39.470492","label":"喀什地区","spell":"KaShiDiQu","cities":[],"index":"K"},{"short":"HTD","areacode":"0903","adcode":"653200","name_en":"Hotan","name":"和田","x":"79.921646","y":"37.114406","label":"和田地区","spell":"HeTianDiQu","cities":[],"index":"H"},{"short":"YLHSKZZ","areacode":"0999","adcode":"654000","name_en":"Ili","name":"伊犁哈萨克自治州","x":"81.323691","y":"43.917106","label":"伊犁哈萨克自治州","spell":"YiLi HaSaKe ZiZhiZhou","cities":[],"index":"Y"},{"short":"TCD","areacode":"0901","adcode":"654200","name_en":"Qoqek","name":"塔城","x":"82.980316","y":"46.745364","label":"塔城地区","spell":"TaChengDiQu","cities":[],"index":"T"},{"short":"ALTD","areacode":"0906","adcode":"654300","name_en":"Altay","name":"阿勒泰","x":"88.141253","y":"47.844924","label":"阿勒泰地区","spell":"ALeTaiDiQu","cities":[],"index":"A"},{"short":"SHZ","areacode":"0993","adcode":"659001","name_en":"Shihezi","name":"石河子","x":"86.080397","y":"44.305368","label":"石河子市","spell":"ShiHeZiShi","cities":[],"index":"S"},{"short":"ALE","areacode":"1997","adcode":"659002","name_en":"Aral","name":"阿拉尔","x":"81.280532","y":"40.547205","label":"阿拉尔市","spell":"ALaErShi","cities":[],"index":"A"},{"short":"TMSK","areacode":"1998","adcode":"659003","name_en":"Tumxuk","name":"图木舒克","x":"79.074965","y":"39.867776","label":"图木舒克市","spell":"TuMuShuKeShi","cities":[],"index":"T"},{"short":"WJQ","areacode":"1994","adcode":"659004","name_en":"Wujiaqu","name":"五家渠","x":"87.542852","y":"44.166489","label":"五家渠市","spell":"WuJiaQuShi","cities":[],"index":"W"}],"index":"X"},"710000":{"adcode":"710000","name":"台湾","label":"台湾省","spell":"TaiwanSheng","x":"121.509062","y":"25.044332","citycode":"1886","cities":[],"index":"T"},"810000":{"adcode":"810000","name":"香港","label":"香港特別行政區","spell":"XiangGang","x":"114.173355","y":"22.320048","citycode":"1852","cities":[],"index":"X"},"820000":{"adcode":"820000","name":"澳门","label":"澳門特別行政區","spell":"AoMen","x":"113.54909","y":"22.198951","citycode":"1853","cities":[],"index":"A"}},"otherCitys":[{"adcode":"710000","name":"台湾","label":"台湾省","spell":"TaiwanSheng","x":"121.509062","y":"25.044332","citycode":"1886","cities":[],"index":"T"},{"adcode":"810000","name":"香港","label":"香港特別行政區","spell":"XiangGang","x":"114.173355","y":"22.320048","citycode":"1852","cities":[],"index":"X"},{"adcode":"820000","name":"澳门","label":"澳門特別行政區","spell":"AoMen","x":"113.54909","y":"22.198951","citycode":"1853","cities":[],"index":"A"}]},"cityByLetter":{"A":[{"adcode":"152900","name":"阿拉善盟"},{"adcode":"210300","name":"鞍山"},{"adcode":"340800","name":"安庆"},{"adcode":"410500","name":"安阳"},{"adcode":"513200","name":"阿坝藏族羌族自治州"},{"adcode":"520400","name":"安顺"},{"adcode":"542500","name":"阿里"},{"adcode":"610900","name":"安康"},{"adcode":"652900","name":"阿克苏"},{"adcode":"654300","name":"阿勒泰"},{"adcode":"659002","name":"阿拉尔"},{"adcode":"820000","name":"澳门"}],"B":[{"adcode":"110000","name":"北京"},{"adcode":"130600","name":"保定"},{"adcode":"150200","name":"包头"},{"adcode":"150800","name":"巴彦淖尔"},{"adcode":"210500","name":"本溪"},{"adcode":"220600","name":"白山"},{"adcode":"220800","name":"白城"},{"adcode":"340300","name":"蚌埠"},{"adcode":"341600","name":"亳州"},{"adcode":"371600","name":"滨州"},{"adcode":"450500","name":"北海"},{"adcode":"451000","name":"百色"},{"adcode":"511900","name":"巴中"},{"adcode":"520500","name":"毕节"},{"adcode":"530500","name":"保山"},{"adcode":"610300","name":"宝鸡"},{"adcode":"620400","name":"白银"},{"adcode":"652700","name":"博尔塔拉蒙古自治州"},{"adcode":"652800","name":"巴音郭楞蒙古自治州"}],"C":[{"adcode":"130800","name":"承德"},{"adcode":"130900","name":"沧州"},{"adcode":"140400","name":"长治"},{"adcode":"150400","name":"赤峰"},{"adcode":"211300","name":"朝阳"},{"adcode":"220100","name":"长春"},{"adcode":"320400","name":"常州"},{"adcode":"341100","name":"滁州"},{"adcode":"341700","name":"池州"},{"adcode":"430100","name":"长沙"},{"adcode":"430700","name":"常德"},{"adcode":"431000","name":"郴州"},{"adcode":"445100","name":"潮州"},{"adcode":"451400","name":"崇左"},{"adcode":"500000","name":"重庆"},{"adcode":"510100","name":"成都"},{"adcode":"532300","name":"楚雄彝族自治州"},{"adcode":"540300","name":"昌都"},{"adcode":"652300","name":"昌吉回族自治州"}],"D":[{"adcode":"140200","name":"大同"},{"adcode":"210200","name":"大连"},{"adcode":"210600","name":"丹东"},{"adcode":"230600","name":"大庆"},{"adcode":"232700","name":"大兴安岭"},{"adcode":"370500","name":"东营"},{"adcode":"371400","name":"德州"},{"adcode":"441900","name":"东莞"},{"adcode":"460400","name":"儋州"},{"adcode":"510600","name":"德阳"},{"adcode":"511700","name":"达州"},{"adcode":"532900","name":"大理白族自治州"},{"adcode":"533100","name":"德宏傣族景颇族自治州"},{"adcode":"533400","name":"迪庆藏族自治州"},{"adcode":"621100","name":"定西"}],"E":[{"adcode":"150600","name":"鄂尔多斯"},{"adcode":"420700","name":"鄂州"},{"adcode":"422800","name":"恩施土家族苗族自治州"}],"F":[{"adcode":"210400","name":"抚顺"},{"adcode":"210900","name":"阜新"},{"adcode":"341200","name":"阜阳"},{"adcode":"350100","name":"福州"},{"adcode":"361000","name":"抚州"},{"adcode":"440600","name":"佛山"},{"adcode":"450600","name":"防城港"}],"G":[{"adcode":"360700","name":"赣州"},{"adcode":"440100","name":"广州"},{"adcode":"450300","name":"桂林"},{"adcode":"450800","name":"贵港"},{"adcode":"510800","name":"广元"},{"adcode":"511600","name":"广安"},{"adcode":"513300","name":"甘孜藏族自治州"},{"adcode":"520100","name":"贵阳"},{"adcode":"623000","name":"甘南藏族自治州"},{"adcode":"632600","name":"果洛藏族自治州"},{"adcode":"640400","name":"固原"}],"H":[{"adcode":"130400","name":"邯郸"},{"adcode":"131100","name":"衡水"},{"adcode":"150100","name":"呼和浩特"},{"adcode":"150700","name":"呼伦贝尔"},{"adcode":"211400","name":"葫芦岛"},{"adcode":"230100","name":"哈尔滨"},{"adcode":"230400","name":"鹤岗"},{"adcode":"231100","name":"黑河"},{"adcode":"320800","name":"淮安"},{"adcode":"330100","name":"杭州"},{"adcode":"330500","name":"湖州"},{"adcode":"340100","name":"合肥"},{"adcode":"340400","name":"淮南"},{"adcode":"340600","name":"淮北"},{"adcode":"341000","name":"黄山"},{"adcode":"371700","name":"菏泽"},{"adcode":"410600","name":"鹤壁"},{"adcode":"420200","name":"黄石"},{"adcode":"421100","name":"黄冈"},{"adcode":"430400","name":"衡阳"},{"adcode":"431200","name":"怀化"},{"adcode":"441300","name":"惠州"},{"adcode":"441600","name":"河源"},{"adcode":"451100","name":"贺州"},{"adcode":"451200","name":"河池"},{"adcode":"460100","name":"海口"},{"adcode":"532500","name":"红河哈尼族彝族自治州"},{"adcode":"610700","name":"汉中"},{"adcode":"630200","name":"海东"},{"adcode":"632200","name":"海北藏族自治州"},{"adcode":"632300","name":"黄南藏族自治州"},{"adcode":"632500","name":"海南藏族自治州"},{"adcode":"632800","name":"海西蒙古族藏族自治州"},{"adcode":"650500","name":"哈密"},{"adcode":"653200","name":"和田"}],"J":[{"adcode":"140500","name":"晋城"},{"adcode":"140700","name":"晋中"},{"adcode":"210700","name":"锦州"},{"adcode":"220200","name":"吉林"},{"adcode":"230300","name":"鸡西"},{"adcode":"230800","name":"佳木斯"},{"adcode":"330400","name":"嘉兴"},{"adcode":"330700","name":"金华"},{"adcode":"360200","name":"景德镇"},{"adcode":"360400","name":"九江"},{"adcode":"360800","name":"吉安"},{"adcode":"370100","name":"济南"},{"adcode":"370800","name":"济宁"},{"adcode":"410800","name":"焦作"},{"adcode":"419001","name":"济源"},{"adcode":"420800","name":"荆门"},{"adcode":"421000","name":"荆州"},{"adcode":"440700","name":"江门"},{"adcode":"445200","name":"揭阳"},{"adcode":"620200","name":"嘉峪关"},{"adcode":"620300","name":"金昌"},{"adcode":"620900","name":"酒泉"}],"K":[{"adcode":"410200","name":"开封"},{"adcode":"530100","name":"昆明"},{"adcode":"650200","name":"克拉玛依"},{"adcode":"653000","name":"克孜勒苏柯尔克孜自治州"},{"adcode":"653100","name":"喀什"}],"L":[{"adcode":"131000","name":"廊坊"},{"adcode":"141000","name":"临汾"},{"adcode":"141100","name":"吕梁"},{"adcode":"211000","name":"辽阳"},{"adcode":"220400","name":"辽源"},{"adcode":"320700","name":"连云港"},{"adcode":"331100","name":"丽水"},{"adcode":"341500","name":"六安"},{"adcode":"350800","name":"龙岩"},{"adcode":"371300","name":"临沂"},{"adcode":"371500","name":"聊城"},{"adcode":"410300","name":"洛阳"},{"adcode":"411100","name":"漯河"},{"adcode":"431300","name":"娄底"},{"adcode":"450200","name":"柳州"},{"adcode":"451300","name":"来宾"},{"adcode":"510500","name":"泸州"},{"adcode":"511100","name":"乐山"},{"adcode":"513400","name":"凉山彝族自治州"},{"adcode":"520200","name":"六盘水"},{"adcode":"530700","name":"丽江"},{"adcode":"530900","name":"临沧"},{"adcode":"540100","name":"拉萨"},{"adcode":"540400","name":"林芝"},{"adcode":"620100","name":"兰州"},{"adcode":"621200","name":"陇南"},{"adcode":"622900","name":"临夏回族自治州"}],"M":[{"adcode":"231000","name":"牡丹江"},{"adcode":"340500","name":"马鞍山"},{"adcode":"440900","name":"茂名"},{"adcode":"441400","name":"梅州"},{"adcode":"510700","name":"绵阳"},{"adcode":"511400","name":"眉山"}],"N":[{"adcode":"320100","name":"南京"},{"adcode":"320600","name":"南通"},{"adcode":"330200","name":"宁波"},{"adcode":"350700","name":"南平"},{"adcode":"350900","name":"宁德"},{"adcode":"360100","name":"南昌"},{"adcode":"411300","name":"南阳"},{"adcode":"450100","name":"南宁"},{"adcode":"511000","name":"内江"},{"adcode":"511300","name":"南充"},{"adcode":"533300","name":"怒江傈僳族自治州"},{"adcode":"540600","name":"那曲"}],"P":[{"adcode":"211100","name":"盘锦"},{"adcode":"350300","name":"莆田"},{"adcode":"360300","name":"萍乡"},{"adcode":"410400","name":"平顶山"},{"adcode":"410900","name":"濮阳"},{"adcode":"510400","name":"攀枝花"},{"adcode":"530800","name":"普洱"},{"adcode":"620800","name":"平凉"}],"Q":[{"adcode":"130300","name":"秦皇岛"},{"adcode":"230200","name":"齐齐哈尔"},{"adcode":"230900","name":"七台河"},{"adcode":"330800","name":"衢州"},{"adcode":"350500","name":"泉州"},{"adcode":"370200","name":"青岛"},{"adcode":"429005","name":"潜江"},{"adcode":"441800","name":"清远"},{"adcode":"450700","name":"钦州"},{"adcode":"522300","name":"黔西南布依族苗族自治州"},{"adcode":"522600","name":"黔东南苗族侗族自治州"},{"adcode":"522700","name":"黔南布依族苗族自治州"},{"adcode":"530300","name":"曲靖"},{"adcode":"621000","name":"庆阳"}],"R":[{"adcode":"371100","name":"日照"},{"adcode":"540200","name":"日喀则"}],"S":[{"adcode":"130100","name":"石家庄"},{"adcode":"140600","name":"朔州"},{"adcode":"210100","name":"沈阳"},{"adcode":"220300","name":"四平"},{"adcode":"220700","name":"松原"},{"adcode":"230500","name":"双鸭山"},{"adcode":"231200","name":"绥化"},{"adcode":"310000","name":"上海"},{"adcode":"320500","name":"苏州"},{"adcode":"321300","name":"宿迁"},{"adcode":"330600","name":"绍兴"},{"adcode":"341300","name":"宿州"},{"adcode":"350400","name":"三明"},{"adcode":"361100","name":"上饶"},{"adcode":"411200","name":"三门峡"},{"adcode":"411400","name":"商丘"},{"adcode":"420300","name":"十堰"},{"adcode":"421300","name":"随州"},{"adcode":"429021","name":"神农架林区"},{"adcode":"430500","name":"邵阳"},{"adcode":"440200","name":"韶关"},{"adcode":"440300","name":"深圳"},{"adcode":"440500","name":"汕头"},{"adcode":"441500","name":"汕尾"},{"adcode":"460200","name":"三亚"},{"adcode":"460300","name":"三沙"},{"adcode":"510900","name":"遂宁"},{"adcode":"540500","name":"山南"},{"adcode":"611000","name":"商洛"},{"adcode":"640200","name":"石嘴山"},{"adcode":"659001","name":"石河子"}],"T":[{"adcode":"120000","name":"天津"},{"adcode":"130200","name":"唐山"},{"adcode":"140100","name":"太原"},{"adcode":"150500","name":"通辽"},{"adcode":"211200","name":"铁岭"},{"adcode":"220500","name":"通化"},{"adcode":"321200","name":"泰州"},{"adcode":"331000","name":"台州"},{"adcode":"340700","name":"铜陵"},{"adcode":"370900","name":"泰安"},{"adcode":"429006","name":"天门"},{"adcode":"520600","name":"铜仁"},{"adcode":"610200","name":"铜川"},{"adcode":"620500","name":"天水"},{"adcode":"650400","name":"吐鲁番"},{"adcode":"654200","name":"塔城"},{"adcode":"659003","name":"图木舒克"},{"adcode":"710000","name":"台湾"}],"W":[{"adcode":"150300","name":"乌海"},{"adcode":"150900","name":"乌兰察布"},{"adcode":"320200","name":"无锡"},{"adcode":"330300","name":"温州"},{"adcode":"340200","name":"芜湖"},{"adcode":"370700","name":"潍坊"},{"adcode":"371000","name":"威海"},{"adcode":"420100","name":"武汉"},{"adcode":"450400","name":"梧州"},{"adcode":"532600","name":"文山壮族苗族自治州"},{"adcode":"610500","name":"渭南"},{"adcode":"620600","name":"武威"},{"adcode":"640300","name":"吴忠"},{"adcode":"650100","name":"乌鲁木齐"},{"adcode":"659004","name":"五家渠"}],"X":[{"adcode":"130500","name":"邢台"},{"adcode":"140900","name":"忻州"},{"adcode":"152200","name":"兴安盟"},{"adcode":"152500","name":"锡林郭勒盟"},{"adcode":"320300","name":"徐州"},{"adcode":"341800","name":"宣城"},{"adcode":"350200","name":"厦门"},{"adcode":"360500","name":"新余"},{"adcode":"410700","name":"新乡"},{"adcode":"411000","name":"许昌"},{"adcode":"411500","name":"信阳"},{"adcode":"420600","name":"襄阳"},{"adcode":"420900","name":"孝感"},{"adcode":"421200","name":"咸宁"},{"adcode":"429004","name":"仙桃"},{"adcode":"430300","name":"湘潭"},{"adcode":"433100","name":"湘西土家族苗族自治州"},{"adcode":"532800","name":"西双版纳傣族自治州"},{"adcode":"610100","name":"西安"},{"adcode":"610400","name":"咸阳"},{"adcode":"630100","name":"西宁"},{"adcode":"810000","name":"香港"}],"Y":[{"adcode":"140300","name":"阳泉"},{"adcode":"140800","name":"运城"},{"adcode":"210800","name":"营口"},{"adcode":"222400","name":"延边朝鲜族自治州"},{"adcode":"230700","name":"伊春"},{"adcode":"320900","name":"盐城"},{"adcode":"321000","name":"扬州"},{"adcode":"360600","name":"鹰潭"},{"adcode":"360900","name":"宜春"},{"adcode":"370600","name":"烟台"},{"adcode":"420500","name":"宜昌"},{"adcode":"430600","name":"岳阳"},{"adcode":"430900","name":"益阳"},{"adcode":"431100","name":"永州"},{"adcode":"441700","name":"阳江"},{"adcode":"445300","name":"云浮"},{"adcode":"450900","name":"玉林"},{"adcode":"511500","name":"宜宾"},{"adcode":"511800","name":"雅安"},{"adcode":"530400","name":"玉溪"},{"adcode":"610600","name":"延安"},{"adcode":"610800","name":"榆林"},{"adcode":"632700","name":"玉树藏族自治州"},{"adcode":"640100","name":"银川"},{"adcode":"654000","name":"伊犁哈萨克自治州"}],"Z":[{"adcode":"130700","name":"张家口"},{"adcode":"321100","name":"镇江"},{"adcode":"330900","name":"舟山"},{"adcode":"350600","name":"漳州"},{"adcode":"370300","name":"淄博"},{"adcode":"370400","name":"枣庄"},{"adcode":"410100","name":"郑州"},{"adcode":"411600","name":"周口"},{"adcode":"411700","name":"驻马店"},{"adcode":"430200","name":"株洲"},{"adcode":"430800","name":"张家界"},{"adcode":"440400","name":"珠海"},{"adcode":"440800","name":"湛江"},{"adcode":"441200","name":"肇庆"},{"adcode":"442000","name":"中山"},{"adcode":"510300","name":"自贡"},{"adcode":"512000","name":"资阳"},{"adcode":"520300","name":"遵义"},{"adcode":"530600","name":"昭通"},{"adcode":"620700","name":"张掖"},{"adcode":"640500","name":"中卫"}]},"provinceByLetter":{"A":[{"安徽":[{"adcode":"340100","name":"合肥"},{"adcode":"340200","name":"芜湖"},{"adcode":"340300","name":"蚌埠"},{"adcode":"340400","name":"淮南"},{"adcode":"340500","name":"马鞍山"},{"adcode":"340600","name":"淮北"},{"adcode":"340700","name":"铜陵"},{"adcode":"340800","name":"安庆"},{"adcode":"341000","name":"黄山"},{"adcode":"341100","name":"滁州"},{"adcode":"341200","name":"阜阳"},{"adcode":"341300","name":"宿州"},{"adcode":"341500","name":"六安"},{"adcode":"341600","name":"亳州"},{"adcode":"341700","name":"池州"},{"adcode":"341800","name":"宣城"}]}],"F":[{"福建":[{"adcode":"350100","name":"福州"},{"adcode":"350200","name":"厦门"},{"adcode":"350300","name":"莆田"},{"adcode":"350400","name":"三明"},{"adcode":"350500","name":"泉州"},{"adcode":"350600","name":"漳州"},{"adcode":"350700","name":"南平"},{"adcode":"350800","name":"龙岩"},{"adcode":"350900","name":"宁德"}]}],"G":[{"广东":[{"adcode":"440100","name":"广州"},{"adcode":"440200","name":"韶关"},{"adcode":"440300","name":"深圳"},{"adcode":"440400","name":"珠海"},{"adcode":"440500","name":"汕头"},{"adcode":"440600","name":"佛山"},{"adcode":"440700","name":"江门"},{"adcode":"440800","name":"湛江"},{"adcode":"440900","name":"茂名"},{"adcode":"441200","name":"肇庆"},{"adcode":"441300","name":"惠州"},{"adcode":"441400","name":"梅州"},{"adcode":"441500","name":"汕尾"},{"adcode":"441600","name":"河源"},{"adcode":"441700","name":"阳江"},{"adcode":"441800","name":"清远"},{"adcode":"441900","name":"东莞"},{"adcode":"442000","name":"中山"},{"adcode":"445100","name":"潮州"},{"adcode":"445200","name":"揭阳"},{"adcode":"445300","name":"云浮"}]},{"广西":[{"adcode":"450100","name":"南宁"},{"adcode":"450200","name":"柳州"},{"adcode":"450300","name":"桂林"},{"adcode":"450400","name":"梧州"},{"adcode":"450500","name":"北海"},{"adcode":"450600","name":"防城港"},{"adcode":"450700","name":"钦州"},{"adcode":"450800","name":"贵港"},{"adcode":"450900","name":"玉林"},{"adcode":"451000","name":"百色"},{"adcode":"451100","name":"贺州"},{"adcode":"451200","name":"河池"},{"adcode":"451300","name":"来宾"},{"adcode":"451400","name":"崇左"}]},{"贵州":[{"adcode":"520100","name":"贵阳"},{"adcode":"520200","name":"六盘水"},{"adcode":"520300","name":"遵义"},{"adcode":"520400","name":"安顺"},{"adcode":"520500","name":"毕节"},{"adcode":"520600","name":"铜仁"},{"adcode":"522300","name":"黔西南布依族苗族自治州"},{"adcode":"522600","name":"黔东南苗族侗族自治州"},{"adcode":"522700","name":"黔南布依族苗族自治州"}]},{"甘肃":[{"adcode":"620100","name":"兰州"},{"adcode":"620200","name":"嘉峪关"},{"adcode":"620300","name":"金昌"},{"adcode":"620400","name":"白银"},{"adcode":"620500","name":"天水"},{"adcode":"620600","name":"武威"},{"adcode":"620700","name":"张掖"},{"adcode":"620800","name":"平凉"},{"adcode":"620900","name":"酒泉"},{"adcode":"621000","name":"庆阳"},{"adcode":"621100","name":"定西"},{"adcode":"621200","name":"陇南"},{"adcode":"622900","name":"临夏回族自治州"},{"adcode":"623000","name":"甘南藏族自治州"}]}],"H":[{"河北":[{"adcode":"130100","name":"石家庄"},{"adcode":"130200","name":"唐山"},{"adcode":"130300","name":"秦皇岛"},{"adcode":"130400","name":"邯郸"},{"adcode":"130500","name":"邢台"},{"adcode":"130600","name":"保定"},{"adcode":"130700","name":"张家口"},{"adcode":"130800","name":"承德"},{"adcode":"130900","name":"沧州"},{"adcode":"131000","name":"廊坊"},{"adcode":"131100","name":"衡水"}]},{"黑龙江":[{"adcode":"230100","name":"哈尔滨"},{"adcode":"230200","name":"齐齐哈尔"},{"adcode":"230300","name":"鸡西"},{"adcode":"230400","name":"鹤岗"},{"adcode":"230500","name":"双鸭山"},{"adcode":"230600","name":"大庆"},{"adcode":"230700","name":"伊春"},{"adcode":"230800","name":"佳木斯"},{"adcode":"230900","name":"七台河"},{"adcode":"231000","name":"牡丹江"},{"adcode":"231100","name":"黑河"},{"adcode":"231200","name":"绥化"},{"adcode":"232700","name":"大兴安岭"}]},{"河南":[{"adcode":"410100","name":"郑州"},{"adcode":"410200","name":"开封"},{"adcode":"410300","name":"洛阳"},{"adcode":"410400","name":"平顶山"},{"adcode":"410500","name":"安阳"},{"adcode":"410600","name":"鹤壁"},{"adcode":"410700","name":"新乡"},{"adcode":"410800","name":"焦作"},{"adcode":"410900","name":"濮阳"},{"adcode":"411000","name":"许昌"},{"adcode":"411100","name":"漯河"},{"adcode":"411200","name":"三门峡"},{"adcode":"411300","name":"南阳"},{"adcode":"411400","name":"商丘"},{"adcode":"411500","name":"信阳"},{"adcode":"411600","name":"周口"},{"adcode":"411700","name":"驻马店"},{"adcode":"419001","name":"济源"}]},{"湖北":[{"adcode":"420100","name":"武汉"},{"adcode":"420200","name":"黄石"},{"adcode":"420300","name":"十堰"},{"adcode":"420500","name":"宜昌"},{"adcode":"420600","name":"襄阳"},{"adcode":"420700","name":"鄂州"},{"adcode":"420800","name":"荆门"},{"adcode":"420900","name":"孝感"},{"adcode":"421000","name":"荆州"},{"adcode":"421100","name":"黄冈"},{"adcode":"421200","name":"咸宁"},{"adcode":"421300","name":"随州"},{"adcode":"422800","name":"恩施土家族苗族自治州"},{"adcode":"429004","name":"仙桃"},{"adcode":"429005","name":"潜江"},{"adcode":"429006","name":"天门"},{"adcode":"429021","name":"神农架林区"}]},{"湖南":[{"adcode":"430100","name":"长沙"},{"adcode":"430200","name":"株洲"},{"adcode":"430300","name":"湘潭"},{"adcode":"430400","name":"衡阳"},{"adcode":"430500","name":"邵阳"},{"adcode":"430600","name":"岳阳"},{"adcode":"430700","name":"常德"},{"adcode":"430800","name":"张家界"},{"adcode":"430900","name":"益阳"},{"adcode":"431000","name":"郴州"},{"adcode":"431100","name":"永州"},{"adcode":"431200","name":"怀化"},{"adcode":"431300","name":"娄底"},{"adcode":"433100","name":"湘西土家族苗族自治州"}]},{"海南":[{"adcode":"460100","name":"海口"},{"adcode":"460200","name":"三亚"},{"adcode":"460300","name":"三沙"},{"adcode":"460400","name":"儋州"}]}],"J":[{"吉林":[{"adcode":"220100","name":"长春"},{"adcode":"220200","name":"吉林"},{"adcode":"220300","name":"四平"},{"adcode":"220400","name":"辽源"},{"adcode":"220500","name":"通化"},{"adcode":"220600","name":"白山"},{"adcode":"220700","name":"松原"},{"adcode":"220800","name":"白城"},{"adcode":"222400","name":"延边朝鲜族自治州"}]},{"江苏":[{"adcode":"320100","name":"南京"},{"adcode":"320200","name":"无锡"},{"adcode":"320300","name":"徐州"},{"adcode":"320400","name":"常州"},{"adcode":"320500","name":"苏州"},{"adcode":"320600","name":"南通"},{"adcode":"320700","name":"连云港"},{"adcode":"320800","name":"淮安"},{"adcode":"320900","name":"盐城"},{"adcode":"321000","name":"扬州"},{"adcode":"321100","name":"镇江"},{"adcode":"321200","name":"泰州"},{"adcode":"321300","name":"宿迁"}]},{"江西":[{"adcode":"360100","name":"南昌"},{"adcode":"360200","name":"景德镇"},{"adcode":"360300","name":"萍乡"},{"adcode":"360400","name":"九江"},{"adcode":"360500","name":"新余"},{"adcode":"360600","name":"鹰潭"},{"adcode":"360700","name":"赣州"},{"adcode":"360800","name":"吉安"},{"adcode":"360900","name":"宜春"},{"adcode":"361000","name":"抚州"},{"adcode":"361100","name":"上饶"}]}],"L":[{"辽宁":[{"adcode":"210100","name":"沈阳"},{"adcode":"210200","name":"大连"},{"adcode":"210300","name":"鞍山"},{"adcode":"210400","name":"抚顺"},{"adcode":"210500","name":"本溪"},{"adcode":"210600","name":"丹东"},{"adcode":"210700","name":"锦州"},{"adcode":"210800","name":"营口"},{"adcode":"210900","name":"阜新"},{"adcode":"211000","name":"辽阳"},{"adcode":"211100","name":"盘锦"},{"adcode":"211200","name":"铁岭"},{"adcode":"211300","name":"朝阳"},{"adcode":"211400","name":"葫芦岛"}]}],"N":[{"内蒙古":[{"adcode":"150100","name":"呼和浩特"},{"adcode":"150200","name":"包头"},{"adcode":"150300","name":"乌海"},{"adcode":"150400","name":"赤峰"},{"adcode":"150500","name":"通辽"},{"adcode":"150600","name":"鄂尔多斯"},{"adcode":"150700","name":"呼伦贝尔"},{"adcode":"150800","name":"巴彦淖尔"},{"adcode":"150900","name":"乌兰察布"},{"adcode":"152200","name":"兴安盟"},{"adcode":"152500","name":"锡林郭勒盟"},{"adcode":"152900","name":"阿拉善盟"}]},{"宁夏":[{"adcode":"640100","name":"银川"},{"adcode":"640200","name":"石嘴山"},{"adcode":"640300","name":"吴忠"},{"adcode":"640400","name":"固原"},{"adcode":"640500","name":"中卫"}]}],"Q":[{"青海":[{"adcode":"630100","name":"西宁"},{"adcode":"630200","name":"海东"},{"adcode":"632200","name":"海北藏族自治州"},{"adcode":"632300","name":"黄南藏族自治州"},{"adcode":"632500","name":"海南藏族自治州"},{"adcode":"632600","name":"果洛藏族自治州"},{"adcode":"632700","name":"玉树藏族自治州"},{"adcode":"632800","name":"海西蒙古族藏族自治州"}]}],"S":[{"山西":[{"adcode":"140100","name":"太原"},{"adcode":"140200","name":"大同"},{"adcode":"140300","name":"阳泉"},{"adcode":"140400","name":"长治"},{"adcode":"140500","name":"晋城"},{"adcode":"140600","name":"朔州"},{"adcode":"140700","name":"晋中"},{"adcode":"140800","name":"运城"},{"adcode":"140900","name":"忻州"},{"adcode":"141000","name":"临汾"},{"adcode":"141100","name":"吕梁"}]},{"山东":[{"adcode":"370100","name":"济南"},{"adcode":"370200","name":"青岛"},{"adcode":"370300","name":"淄博"},{"adcode":"370400","name":"枣庄"},{"adcode":"370500","name":"东营"},{"adcode":"370600","name":"烟台"},{"adcode":"370700","name":"潍坊"},{"adcode":"370800","name":"济宁"},{"adcode":"370900","name":"泰安"},{"adcode":"371000","name":"威海"},{"adcode":"371100","name":"日照"},{"adcode":"371300","name":"临沂"},{"adcode":"371400","name":"德州"},{"adcode":"371500","name":"聊城"},{"adcode":"371600","name":"滨州"},{"adcode":"371700","name":"菏泽"}]},{"四川":[{"adcode":"510100","name":"成都"},{"adcode":"510300","name":"自贡"},{"adcode":"510400","name":"攀枝花"},{"adcode":"510500","name":"泸州"},{"adcode":"510600","name":"德阳"},{"adcode":"510700","name":"绵阳"},{"adcode":"510800","name":"广元"},{"adcode":"510900","name":"遂宁"},{"adcode":"511000","name":"内江"},{"adcode":"511100","name":"乐山"},{"adcode":"511300","name":"南充"},{"adcode":"511400","name":"眉山"},{"adcode":"511500","name":"宜宾"},{"adcode":"511600","name":"广安"},{"adcode":"511700","name":"达州"},{"adcode":"511800","name":"雅安"},{"adcode":"511900","name":"巴中"},{"adcode":"512000","name":"资阳"},{"adcode":"513200","name":"阿坝藏族羌族自治州"},{"adcode":"513300","name":"甘孜藏族自治州"},{"adcode":"513400","name":"凉山彝族自治州"}]},{"陕西":[{"adcode":"610100","name":"西安"},{"adcode":"610200","name":"铜川"},{"adcode":"610300","name":"宝鸡"},{"adcode":"610400","name":"咸阳"},{"adcode":"610500","name":"渭南"},{"adcode":"610600","name":"延安"},{"adcode":"610700","name":"汉中"},{"adcode":"610800","name":"榆林"},{"adcode":"610900","name":"安康"},{"adcode":"611000","name":"商洛"}]}],"X":[{"西藏":[{"adcode":"540100","name":"拉萨"},{"adcode":"540200","name":"日喀则"},{"adcode":"540300","name":"昌都"},{"adcode":"540400","name":"林芝"},{"adcode":"540500","name":"山南"},{"adcode":"540600","name":"那曲"},{"adcode":"542500","name":"阿里"}]},{"新疆":[{"adcode":"650100","name":"乌鲁木齐"},{"adcode":"650200","name":"克拉玛依"},{"adcode":"650400","name":"吐鲁番"},{"adcode":"650500","name":"哈密"},{"adcode":"652300","name":"昌吉回族自治州"},{"adcode":"652700","name":"博尔塔拉蒙古自治州"},{"adcode":"652800","name":"巴音郭楞蒙古自治州"},{"adcode":"652900","name":"阿克苏"},{"adcode":"653000","name":"克孜勒苏柯尔克孜自治州"},{"adcode":"653100","name":"喀什"},{"adcode":"653200","name":"和田"},{"adcode":"654000","name":"伊犁哈萨克自治州"},{"adcode":"654200","name":"塔城"},{"adcode":"654300","name":"阿勒泰"},{"adcode":"659001","name":"石河子"},{"adcode":"659002","name":"阿拉尔"},{"adcode":"659003","name":"图木舒克"},{"adcode":"659004","name":"五家渠"}]}],"Y":[{"云南":[{"adcode":"530100","name":"昆明"},{"adcode":"530300","name":"曲靖"},{"adcode":"530400","name":"玉溪"},{"adcode":"530500","name":"保山"},{"adcode":"530600","name":"昭通"},{"adcode":"530700","name":"丽江"},{"adcode":"530800","name":"普洱"},{"adcode":"530900","name":"临沧"},{"adcode":"532300","name":"楚雄彝族自治州"},{"adcode":"532500","name":"红河哈尼族彝族自治州"},{"adcode":"532600","name":"文山壮族苗族自治州"},{"adcode":"532800","name":"西双版纳傣族自治州"},{"adcode":"532900","name":"大理白族自治州"},{"adcode":"533100","name":"德宏傣族景颇族自治州"},{"adcode":"533300","name":"怒江傈僳族自治州"},{"adcode":"533400","name":"迪庆藏族自治州"}]}],"Z":[{"浙江":[{"adcode":"330100","name":"杭州"},{"adcode":"330200","name":"宁波"},{"adcode":"330300","name":"温州"},{"adcode":"330400","name":"嘉兴"},{"adcode":"330500","name":"湖州"},{"adcode":"330600","name":"绍兴"},{"adcode":"330700","name":"金华"},{"adcode":"330800","name":"衢州"},{"adcode":"330900","name":"舟山"},{"adcode":"331000","name":"台州"},{"adcode":"331100","name":"丽水"}]}]},"version":"20251619"},"update":true}